[
  {

        "cityName": "南京市",
        "areas": [
          {
            "areaName": "玄武区","streets": [{
            "streetName": "梅园新村街道","villages":[{"code":"320102002001","name":"梅园新村社区居委会","streetCode":"320102002","areaCode":"320102","cityCode":"3201","provinceCode":"32"},{"code":"320102002002","name":"大行宫社区居委会","streetCode":"320102002","areaCode":"320102","cityCode":"3201","provinceCode":"32"},{"code":"320102002005","name":"大影壁社区居委会","streetCode":"320102002","areaCode":"320102","cityCode":"3201","provinceCode":"32"},{"code":"320102002006","name":"东南大学社区居委会","streetCode":"320102002","areaCode":"320102","cityCode":"3201","provinceCode":"32"},{"code":"320102002007","name":"兰园社区居委会","streetCode":"320102002","areaCode":"320102","cityCode":"3201","provinceCode":"32"},{"code":"320102002009","name":"太平门社区居委会","streetCode":"320102002","areaCode":"320102","cityCode":"3201","provinceCode":"32"},{"code":"320102002010","name":"明故宫社区居委会","streetCode":"320102002","areaCode":"320102","cityCode":"3201","provinceCode":"32"},{"code":"320102002011","name":"北安门社区居委会","streetCode":"320102002","areaCode":"320102","cityCode":"3201","provinceCode":"32"},{"code":"320102002012","name":"富贵山社区居委会","streetCode":"320102002","areaCode":"320102","cityCode":"3201","provinceCode":"32"}] },{
            "streetName": "新街口街道","villages": [{"code":"320102003001","name":"香铺营社区居委会","streetCode":"320102003","areaCode":"320102","cityCode":"3201","provinceCode":"32"},{"code":"320102003002","name":"长江路社区居委会","streetCode":"320102003","areaCode":"320102","cityCode":"3201","provinceCode":"32"},{"code":"320102003003","name":"北门桥社区居委会","streetCode":"320102003","areaCode":"320102","cityCode":"3201","provinceCode":"32"},{"code":"320102003009","name":"唱经楼社区居委会","streetCode":"320102003","areaCode":"320102","cityCode":"3201","provinceCode":"32"},{"code":"320102003011","name":"大石桥社区居委会","streetCode":"320102003","areaCode":"320102","cityCode":"3201","provinceCode":"32"},{"code":"320102003015","name":"成贤街社区居委会","streetCode":"320102003","areaCode":"320102","cityCode":"3201","provinceCode":"32"}]},{
            "streetName": "玄武门街道","villages": [{"code":"320102005001","name":"百子亭社区","streetCode":"320102005","areaCode":"320102","cityCode":"3201","provinceCode":"32"},{"code":"320102005003","name":"台城花园社区居委会","streetCode":"320102005","areaCode":"320102","cityCode":"3201","provinceCode":"32"},{"code":"320102005004","name":"天山路社区居委会","streetCode":"320102005","areaCode":"320102","cityCode":"3201","provinceCode":"32"},{"code":"320102005007","name":"大树根社区居委会","streetCode":"320102005","areaCode":"320102","cityCode":"3201","provinceCode":"32"},{"code":"320102005008","name":"廖家巷社区居委会","streetCode":"320102005","areaCode":"320102","cityCode":"3201","provinceCode":"32"},{"code":"320102005009","name":"公教一村社区居委会","streetCode":"320102005","areaCode":"320102","cityCode":"3201","provinceCode":"32"}]},{
            "streetName": "锁金村街道","villages": [{"code":"320102007002","name":"锁一社区居委会","streetCode":"320102007","areaCode":"320102","cityCode":"3201","provinceCode":"32"},{"code":"320102007003","name":"锁二社区居委会","streetCode":"320102007","areaCode":"320102","cityCode":"3201","provinceCode":"32"},{"code":"320102007004","name":"锁三社区居委会","streetCode":"320102007","areaCode":"320102","cityCode":"3201","provinceCode":"32"},{"code":"320102007005","name":"锁四社区居委会","streetCode":"320102007","areaCode":"320102","cityCode":"3201","provinceCode":"32"},{"code":"320102007006","name":"锁五社区居委会","streetCode":"320102007","areaCode":"320102","cityCode":"3201","provinceCode":"32"},{"code":"320102007007","name":"紫鑫城社区居委会","streetCode":"320102007","areaCode":"320102","cityCode":"3201","provinceCode":"32"},{"code":"320102007009","name":"新庄社区居委会","streetCode":"320102007","areaCode":"320102","cityCode":"3201","provinceCode":"32"}]},{
            "streetName": "红山街道","villages": [{"code":"320102008001","name":"营苑社区居委会","streetCode":"320102008","areaCode":"320102","cityCode":"3201","provinceCode":"32"},{"code":"320102008002","name":"墨香山庄社区居委会","streetCode":"320102008","areaCode":"320102","cityCode":"3201","provinceCode":"32"},{"code":"320102008003","name":"月苑社区居委会","streetCode":"320102008","areaCode":"320102","cityCode":"3201","provinceCode":"32"},{"code":"320102008004","name":"红山社区居委会","streetCode":"320102008","areaCode":"320102","cityCode":"3201","provinceCode":"32"},{"code":"320102008005","name":"曹后社区居委会","streetCode":"320102008","areaCode":"320102","cityCode":"3201","provinceCode":"32"},{"code":"320102008006","name":"北苑社区居委会","streetCode":"320102008","areaCode":"320102","cityCode":"3201","provinceCode":"32"},{"code":"320102008007","name":"藤子社区居委会","streetCode":"320102008","areaCode":"320102","cityCode":"3201","provinceCode":"32"},{"code":"320102008008","name":"红山公园社区居委会","streetCode":"320102008","areaCode":"320102","cityCode":"3201","provinceCode":"32"},{"code":"320102008009","name":"阳光嘉园社区居委会","streetCode":"320102008","areaCode":"320102","cityCode":"3201","provinceCode":"32"},{"code":"320102008010","name":"紫金小营社区居委会","streetCode":"320102008","areaCode":"320102","cityCode":"3201","provinceCode":"32"}]},{
            "streetName": "孝陵卫街道","villages": [{"code":"320102009002","name":"小卫街社区居委会","streetCode":"320102009","areaCode":"320102","cityCode":"3201","provinceCode":"32"},{"code":"320102009003","name":"孝陵卫社区居委会","streetCode":"320102009","areaCode":"320102","cityCode":"3201","provinceCode":"32"},{"code":"320102009005","name":"晏公庙社区居委会","streetCode":"320102009","areaCode":"320102","cityCode":"3201","provinceCode":"32"},{"code":"320102009006","name":"钟灵街社区居委会","streetCode":"320102009","areaCode":"320102","cityCode":"3201","provinceCode":"32"},{"code":"320102009007","name":"农科院社区居委会","streetCode":"320102009","areaCode":"320102","cityCode":"3201","provinceCode":"32"},{"code":"320102009008","name":"盛和家园社区居委会","streetCode":"320102009","areaCode":"320102","cityCode":"3201","provinceCode":"32"},{"code":"320102009009","name":"铁匠营社区居委会","streetCode":"320102009","areaCode":"320102","cityCode":"3201","provinceCode":"32"},{"code":"320102009011","name":"康定里社区居委会","streetCode":"320102009","areaCode":"320102","cityCode":"3201","provinceCode":"32"},{"code":"320102009012","name":"南京农业大学社区居委会","streetCode":"320102009","areaCode":"320102","cityCode":"3201","provinceCode":"32"},{"code":"320102009013","name":"南京理工大学社区居委会","streetCode":"320102009","areaCode":"320102","cityCode":"3201","provinceCode":"32"},{"code":"320102009014","name":"银城东苑社区居委会","streetCode":"320102009","areaCode":"320102","cityCode":"3201","provinceCode":"32"}]},{
            "streetName": "玄武湖街道","villages": [{"code":"320102010001","name":"板仓社区居委会","streetCode":"320102010","areaCode":"320102","cityCode":"3201","provinceCode":"32"},{"code":"320102010002","name":"花园路社区居委会","streetCode":"320102010","areaCode":"320102","cityCode":"3201","provinceCode":"32"},{"code":"320102010003","name":"蒋王庙社区居委会","streetCode":"320102010","areaCode":"320102","cityCode":"3201","provinceCode":"32"},{"code":"320102010004","name":"樱铁村社区居委会","streetCode":"320102010","areaCode":"320102","cityCode":"3201","provinceCode":"32"},{"code":"320102010005","name":"樱驼花园社区居委会","streetCode":"320102010","areaCode":"320102","cityCode":"3201","provinceCode":"32"},{"code":"320102010006","name":"东方城社区居委会","streetCode":"320102010","areaCode":"320102","cityCode":"3201","provinceCode":"32"},{"code":"320102010007","name":"聚宝山社区居委会","streetCode":"320102010","areaCode":"320102","cityCode":"3201","provinceCode":"32"},{"code":"320102010008","name":"仙鹤门社区居委会","streetCode":"320102010","areaCode":"320102","cityCode":"3201","provinceCode":"32"},{"code":"320102010009","name":"仙居雅苑社区居委会","streetCode":"320102010","areaCode":"320102","cityCode":"3201","provinceCode":"32"},{"code":"320102010011","name":"徐庄社区居民委员会","streetCode":"320102010","areaCode":"320102","cityCode":"3201","provinceCode":"32"}]},{
            "streetName": "徐庄高新技术产业开发区","villages": [{"code":"320102400498","name":"徐庄高新技术产业开发区虚拟社区","streetCode":"320102400","areaCode":"320102","cityCode":"3201","provinceCode":"32"}]}]
          },
          {
            "areaName": "秦淮区","streets": [{
            "streetName": "秦虹街道","villages": [{"code":"320104001001","name":"中牌楼社区居委会","streetCode":"320104001","areaCode":"320104","cityCode":"3201","provinceCode":"32"},{"code":"320104001002","name":"康居里社区居委会","streetCode":"320104001","areaCode":"320104","cityCode":"3201","provinceCode":"32"},{"code":"320104001003","name":"乔虹苑社区居委会","streetCode":"320104001","areaCode":"320104","cityCode":"3201","provinceCode":"32"},{"code":"320104001004","name":"集虹苑社区居委会","streetCode":"320104001","areaCode":"320104","cityCode":"3201","provinceCode":"32"},{"code":"320104001006","name":"武定新村社区居委会","streetCode":"320104001","areaCode":"320104","cityCode":"3201","provinceCode":"32"},{"code":"320104001007","name":"旭光里社区居委会","streetCode":"320104001","areaCode":"320104","cityCode":"3201","provinceCode":"32"},{"code":"320104001008","name":"岗虹苑社区居委会","streetCode":"320104001","areaCode":"320104","cityCode":"3201","provinceCode":"32"},{"code":"320104001009","name":"扇骨里社区居委会","streetCode":"320104001","areaCode":"320104","cityCode":"3201","provinceCode":"32"},{"code":"320104001010","name":"枫丹白露社区居委会","streetCode":"320104001","areaCode":"320104","cityCode":"3201","provinceCode":"32"},{"code":"320104001011","name":"怡謦花园社区居委会","streetCode":"320104001","areaCode":"320104","cityCode":"3201","provinceCode":"32"}]},{
            "streetName": "夫子庙街道","villages": [{"code":"320104002001","name":"莲子营社区居委会","streetCode":"320104002","areaCode":"320104","cityCode":"3201","provinceCode":"32"},{"code":"320104002002","name":"东水关社区居委会","streetCode":"320104002","areaCode":"320104","cityCode":"3201","provinceCode":"32"},{"code":"320104002005","name":"乌衣巷社区居委会","streetCode":"320104002","areaCode":"320104","cityCode":"3201","provinceCode":"32"},{"code":"320104002009","name":"金陵路社区居委会","streetCode":"320104002","areaCode":"320104","cityCode":"3201","provinceCode":"32"},{"code":"320104002012","name":"小西湖社区居委会","streetCode":"320104002","areaCode":"320104","cityCode":"3201","provinceCode":"32"},{"code":"320104002015","name":"饮虹园社区居委会","streetCode":"320104002","areaCode":"320104","cityCode":"3201","provinceCode":"32"},{"code":"320104002016","name":"江宁路社区居委会","streetCode":"320104002","areaCode":"320104","cityCode":"3201","provinceCode":"32"},{"code":"320104002019","name":"门东社区居委会","streetCode":"320104002","areaCode":"320104","cityCode":"3201","provinceCode":"32"}]},{
            "streetName": "红花街道","villages": [{"code":"320104003001","name":"九龙新寓社区居委会","streetCode":"320104003","areaCode":"320104","cityCode":"3201","provinceCode":"32"},{"code":"320104003003","name":"响水桥社区居委会","streetCode":"320104003","areaCode":"320104","cityCode":"3201","provinceCode":"32"},{"code":"320104003004","name":"龙苑新寓社区居委会","streetCode":"320104003","areaCode":"320104","cityCode":"3201","provinceCode":"32"},{"code":"320104003005","name":"阳光里社区居委会","streetCode":"320104003","areaCode":"320104","cityCode":"3201","provinceCode":"32"},{"code":"320104003006","name":"风光里社区居委会","streetCode":"320104003","areaCode":"320104","cityCode":"3201","provinceCode":"32"},{"code":"320104003007","name":"龙翔雅苑社区居委会","streetCode":"320104003","areaCode":"320104","cityCode":"3201","provinceCode":"32"},{"code":"320104003008","name":"春天家园社区居委会","streetCode":"320104003","areaCode":"320104","cityCode":"3201","provinceCode":"32"},{"code":"320104003010","name":"汇幸苑社区居委会","streetCode":"320104003","areaCode":"320104","cityCode":"3201","provinceCode":"32"},{"code":"320104003011","name":"夹岗社区居委会","streetCode":"320104003","areaCode":"320104","cityCode":"3201","provinceCode":"32"},{"code":"320104003012","name":"翁家营社区居委会","streetCode":"320104003","areaCode":"320104","cityCode":"3201","provinceCode":"32"},{"code":"320104003013","name":"果园社区居委会","streetCode":"320104003","areaCode":"320104","cityCode":"3201","provinceCode":"32"},{"code":"320104003014","name":"广洋社区居委会","streetCode":"320104003","areaCode":"320104","cityCode":"3201","provinceCode":"32"}]},{
            "streetName": "双塘街道","villages": [{"code":"320104004001","name":"五福街社区居委会","streetCode":"320104004","areaCode":"320104","cityCode":"3201","provinceCode":"32"},{"code":"320104004003","name":"太平苑社区居委会","streetCode":"320104004","areaCode":"320104","cityCode":"3201","provinceCode":"32"},{"code":"320104004004","name":"来凤街社区居委会","streetCode":"320104004","areaCode":"320104","cityCode":"3201","provinceCode":"32"},{"code":"320104004007","name":"玉带园社区居委会","streetCode":"320104004","areaCode":"320104","cityCode":"3201","provinceCode":"32"},{"code":"320104004008","name":"弓箭坊社区居委会","streetCode":"320104004","areaCode":"320104","cityCode":"3201","provinceCode":"32"},{"code":"320104004009","name":"凤游寺社区居委会","streetCode":"320104004","areaCode":"320104","cityCode":"3201","provinceCode":"32"},{"code":"320104004012","name":"胭脂巷社区居委会","streetCode":"320104004","areaCode":"320104","cityCode":"3201","provinceCode":"32"},{"code":"320104004015","name":"实辉巷社区居委会","streetCode":"320104004","areaCode":"320104","cityCode":"3201","provinceCode":"32"},{"code":"320104004017","name":"磨盘街社区居委会","streetCode":"320104004","areaCode":"320104","cityCode":"3201","provinceCode":"32"},{"code":"320104004018","name":"高岗里社区居委会","streetCode":"320104004","areaCode":"320104","cityCode":"3201","provinceCode":"32"}]},{
            "streetName": "中华门街道","villages": [{"code":"320104005008","name":"开源社区居委会","streetCode":"320104005","areaCode":"320104","cityCode":"3201","provinceCode":"32"},{"code":"320104005009","name":"雨花村社区居委会","streetCode":"320104005","areaCode":"320104","cityCode":"3201","provinceCode":"32"},{"code":"320104005011","name":"路子铺社区居委会","streetCode":"320104005","areaCode":"320104","cityCode":"3201","provinceCode":"32"},{"code":"320104005012","name":"双桥新村社区居委会","streetCode":"320104005","areaCode":"320104","cityCode":"3201","provinceCode":"32"},{"code":"320104005013","name":"曙光里社区居委会","streetCode":"320104005","areaCode":"320104","cityCode":"3201","provinceCode":"32"},{"code":"320104005014","name":"长干里社区居委会","streetCode":"320104005","areaCode":"320104","cityCode":"3201","provinceCode":"32"}]},{
            "streetName": "五老村街道","villages": [{"code":"320104006001","name":"新街口商业步行街社区居委会","streetCode":"320104006","areaCode":"320104","cityCode":"3201","provinceCode":"32"},{"code":"320104006002","name":"淮海路社区居委会","streetCode":"320104006","areaCode":"320104","cityCode":"3201","provinceCode":"32"},{"code":"320104006003","name":"五老村社区居委会","streetCode":"320104006","areaCode":"320104","cityCode":"3201","provinceCode":"32"},{"code":"320104006004","name":"三条巷社区居委会","streetCode":"320104006","areaCode":"320104","cityCode":"3201","provinceCode":"32"},{"code":"320104006005","name":"树德里社区居委会","streetCode":"320104006","areaCode":"320104","cityCode":"3201","provinceCode":"32"}]},{
            "streetName": "洪武路街道","villages": [{"code":"320104007001","name":"火瓦巷社区居委会","streetCode":"320104007","areaCode":"320104","cityCode":"3201","provinceCode":"32"},{"code":"320104007002","name":"武学园社区居委会","streetCode":"320104007","areaCode":"320104","cityCode":"3201","provinceCode":"32"},{"code":"320104007003","name":"龙王庙社区居委会","streetCode":"320104007","areaCode":"320104","cityCode":"3201","provinceCode":"32"},{"code":"320104007004","name":"申家巷社区居委会","streetCode":"320104007","areaCode":"320104","cityCode":"3201","provinceCode":"32"},{"code":"320104007005","name":"棉鞋营社区居委会","streetCode":"320104007","areaCode":"320104","cityCode":"3201","provinceCode":"32"},{"code":"320104007006","name":"马府街社区居委会","streetCode":"320104007","areaCode":"320104","cityCode":"3201","provinceCode":"32"},{"code":"320104007007","name":"建康新村社区居委会","streetCode":"320104007","areaCode":"320104","cityCode":"3201","provinceCode":"32"},{"code":"320104007008","name":"致和街社区居委会","streetCode":"320104007","areaCode":"320104","cityCode":"3201","provinceCode":"32"},{"code":"320104007009","name":"王府南园社区居委会","streetCode":"320104007","areaCode":"320104","cityCode":"3201","provinceCode":"32"},{"code":"320104007010","name":"王府园社区居委会","streetCode":"320104007","areaCode":"320104","cityCode":"3201","provinceCode":"32"}]},{
            "streetName": "大光路街道","villages": [{"code":"320104008001","name":"尚书巷社区居委会","streetCode":"320104008","areaCode":"320104","cityCode":"3201","provinceCode":"32"},{"code":"320104008002","name":"大阳沟社区居委会","streetCode":"320104008","areaCode":"320104","cityCode":"3201","provinceCode":"32"},{"code":"320104008003","name":"大光路社区居委会","streetCode":"320104008","areaCode":"320104","cityCode":"3201","provinceCode":"32"},{"code":"320104008004","name":"蓝旗新村社区居委会","streetCode":"320104008","areaCode":"320104","cityCode":"3201","provinceCode":"32"},{"code":"320104008005","name":"光华园社区居委会","streetCode":"320104008","areaCode":"320104","cityCode":"3201","provinceCode":"32"},{"code":"320104008006","name":"象房新村社区居委会","streetCode":"320104008","areaCode":"320104","cityCode":"3201","provinceCode":"32"}]},{
            "streetName": "瑞金路街道","villages": [{"code":"320104009001","name":"瑞金北村社区居委会","streetCode":"320104009","areaCode":"320104","cityCode":"3201","provinceCode":"32"},{"code":"320104009002","name":"西华东村社区居委会","streetCode":"320104009","areaCode":"320104","cityCode":"3201","provinceCode":"32"},{"code":"320104009003","name":"标营社区居委会","streetCode":"320104009","areaCode":"320104","cityCode":"3201","provinceCode":"32"},{"code":"320104009004","name":"中山门社区居委会","streetCode":"320104009","areaCode":"320104","cityCode":"3201","provinceCode":"32"},{"code":"320104009005","name":"南航社区居委会","streetCode":"320104009","areaCode":"320104","cityCode":"3201","provinceCode":"32"},{"code":"320104009006","name":"瑞金新村社区居委会","streetCode":"320104009","areaCode":"320104","cityCode":"3201","provinceCode":"32"},{"code":"320104009007","name":"明故宫苑社区居委会","streetCode":"320104009","areaCode":"320104","cityCode":"3201","provinceCode":"32"}]},{
            "streetName": "月牙湖街道","villages": [{"code":"320104010002","name":"梅花山庄社区居委会","streetCode":"320104010","areaCode":"320104","cityCode":"3201","provinceCode":"32"},{"code":"320104010003","name":"月牙湖社区居委会","streetCode":"320104010","areaCode":"320104","cityCode":"3201","provinceCode":"32"},{"code":"320104010005","name":"富丽山庄社区居委会","streetCode":"320104010","areaCode":"320104","cityCode":"3201","provinceCode":"32"},{"code":"320104010006","name":"苜蓿园社区居委会","streetCode":"320104010","areaCode":"320104","cityCode":"3201","provinceCode":"32"},{"code":"320104010007","name":"富康社区居委会","streetCode":"320104010","areaCode":"320104","cityCode":"3201","provinceCode":"32"},{"code":"320104010008","name":"金泰社区居委会","streetCode":"320104010","areaCode":"320104","cityCode":"3201","provinceCode":"32"},{"code":"320104010009","name":"石门坎社区居委会","streetCode":"320104010","areaCode":"320104","cityCode":"3201","provinceCode":"32"},{"code":"320104010010","name":"苜东街社区居委会","streetCode":"320104010","areaCode":"320104","cityCode":"3201","provinceCode":"32"}]},{
            "streetName": "关华路街道","villages": [{"code":"320104011003","name":"海福巷社区居委会","streetCode":"320104011","areaCode":"320104","cityCode":"3201","provinceCode":"32"},{"code":"320104011004","name":"四方新村社区居委会","streetCode":"320104011","areaCode":"320104","cityCode":"3201","provinceCode":"32"},{"code":"320104011005","name":"庆华社区居委会","streetCode":"320104011","areaCode":"320104","cityCode":"3201","provinceCode":"32"},{"code":"320104011006","name":"戎苑社区居委会","streetCode":"320104011","areaCode":"320104","cityCode":"3201","provinceCode":"32"},{"code":"320104011007","name":"银龙花园社区居委会","streetCode":"320104011","areaCode":"320104","cityCode":"3201","provinceCode":"32"},{"code":"320104011008","name":"银龙南苑社区居委会","streetCode":"320104011","areaCode":"320104","cityCode":"3201","provinceCode":"32"},{"code":"320104011011","name":"高桥社区居委会","streetCode":"320104011","areaCode":"320104","cityCode":"3201","provinceCode":"32"},{"code":"320104011012","name":"银龙翠苑社区居委会","streetCode":"320104011","areaCode":"320104","cityCode":"3201","provinceCode":"32"},{"code":"320104011013","name":"银龙东苑社区居委会","streetCode":"320104011","areaCode":"320104","cityCode":"3201","provinceCode":"32"},{"code":"320104011014","name":"紫金社区居委会","streetCode":"320104011","areaCode":"320104","cityCode":"3201","provinceCode":"32"},{"code":"320104011015","name":"银龙雅苑社区居委会","streetCode":"320104011","areaCode":"320104","cityCode":"3201","provinceCode":"32"},{"code":"320104011016","name":"银龙鑫苑社区居委会","streetCode":"320104011","areaCode":"320104","cityCode":"3201","provinceCode":"32"},{"code":"320104011017","name":"紫扬佳园社区居委会","streetCode":"320104011","areaCode":"320104","cityCode":"3201","provinceCode":"32"},{"code":"320104011018","name":"世贸花园社区居委会","streetCode":"320104011","areaCode":"320104","cityCode":"3201","provinceCode":"32"}]},{
            "streetName": "朝天宫街道","villages": [{"code":"320104012001","name":"陶李王巷社区居委会","streetCode":"320104012","areaCode":"320104","cityCode":"3201","provinceCode":"32"},{"code":"320104012002","name":"评事街社区居委会","streetCode":"320104012","areaCode":"320104","cityCode":"3201","provinceCode":"32"},{"code":"320104012003","name":"绒庄新村社区居委会","streetCode":"320104012","areaCode":"320104","cityCode":"3201","provinceCode":"32"},{"code":"320104012004","name":"汉西门社区居委会","streetCode":"320104012","areaCode":"320104","cityCode":"3201","provinceCode":"32"},{"code":"320104012005","name":"俞家巷社区居委会","streetCode":"320104012","areaCode":"320104","cityCode":"3201","provinceCode":"32"},{"code":"320104012006","name":"秣陵路社区居委会","streetCode":"320104012","areaCode":"320104","cityCode":"3201","provinceCode":"32"},{"code":"320104012007","name":"冶山道院社区居委会","streetCode":"320104012","areaCode":"320104","cityCode":"3201","provinceCode":"32"},{"code":"320104012008","name":"张府园社区居委会","streetCode":"320104012","areaCode":"320104","cityCode":"3201","provinceCode":"32"},{"code":"320104012009","name":"止马营社区居委会","streetCode":"320104012","areaCode":"320104","cityCode":"3201","provinceCode":"32"},{"code":"320104012010","name":"七家湾社区居委会","streetCode":"320104012","areaCode":"320104","cityCode":"3201","provinceCode":"32"},{"code":"320104012011","name":"安品街社区居委会","streetCode":"320104012","areaCode":"320104","cityCode":"3201","provinceCode":"32"}]},{
            "streetName": "夫子庙秦淮风光带","villages": [{"code":"320104400498","name":"夫子庙秦淮风光带虚拟社区","streetCode":"320104400","areaCode":"320104","cityCode":"3201","provinceCode":"32"}]},{
            "streetName": "高新园区","villages": [{"code":"320104401498","name":"高新园虚拟社区","streetCode":"320104401","areaCode":"320104","cityCode":"3201","provinceCode":"32"}]},{
            "streetName": "新城发展服务","villages": [{"code":"320104402498","name":"新城发展服务虚拟社区","streetCode":"320104402","areaCode":"320104","cityCode":"3201","provinceCode":"32"}]},{
            "streetName": "新街口商务商贸街区","villages": [{"code":"320104403498","name":"新街口商务商贸街区虚拟社区","streetCode":"320104403","areaCode":"320104","cityCode":"3201","provinceCode":"32"}]}]
          },
          {
            "areaName": "建邺区","streets": [{
            "streetName": "莫愁湖街道","villages": [{"code":"320105001001","name":"凤栖苑社区居委会","streetCode":"320105001","areaCode":"320105","cityCode":"3201","provinceCode":"32"},{"code":"320105001004","name":"北圩路社区居委会","streetCode":"320105001","areaCode":"320105","cityCode":"3201","provinceCode":"32"},{"code":"320105001006","name":"江东门社区居委会","streetCode":"320105001","areaCode":"320105","cityCode":"3201","provinceCode":"32"},{"code":"320105001007","name":"兆园社区居委会","streetCode":"320105001","areaCode":"320105","cityCode":"3201","provinceCode":"32"},{"code":"320105001009","name":"明园社区居委会","streetCode":"320105001","areaCode":"320105","cityCode":"3201","provinceCode":"32"},{"code":"320105001011","name":"莫愁湖社区居委会","streetCode":"320105001","areaCode":"320105","cityCode":"3201","provinceCode":"32"},{"code":"320105001012","name":"茶亭社区居委会","streetCode":"320105001","areaCode":"320105","cityCode":"3201","provinceCode":"32"},{"code":"320105001013","name":"艺苑社区居委会","streetCode":"320105001","areaCode":"320105","cityCode":"3201","provinceCode":"32"},{"code":"320105001014","name":"文体社区居委会","streetCode":"320105001","areaCode":"320105","cityCode":"3201","provinceCode":"32"},{"code":"320105001017","name":"沿河社区居委会","streetCode":"320105001","areaCode":"320105","cityCode":"3201","provinceCode":"32"},{"code":"320105001018","name":"蓓蕾社区居委会","streetCode":"320105001","areaCode":"320105","cityCode":"3201","provinceCode":"32"},{"code":"320105001019","name":"水西门社区居委会","streetCode":"320105001","areaCode":"320105","cityCode":"3201","provinceCode":"32"},{"code":"320105001020","name":"长虹路社区居委会","streetCode":"320105001","areaCode":"320105","cityCode":"3201","provinceCode":"32"}]},{
            "streetName": "沙洲街道","villages": [{"code":"320105002001","name":"科技园社区居委会","streetCode":"320105002","areaCode":"320105","cityCode":"3201","provinceCode":"32"},{"code":"320105002002","name":"中城社区居委会","streetCode":"320105002","areaCode":"320105","cityCode":"3201","provinceCode":"32"},{"code":"320105002003","name":"双和园社区居委会","streetCode":"320105002","areaCode":"320105","cityCode":"3201","provinceCode":"32"},{"code":"320105002004","name":"中奥社区居委会","streetCode":"320105002","areaCode":"320105","cityCode":"3201","provinceCode":"32"},{"code":"320105002005","name":"中胜社区居委会","streetCode":"320105002","areaCode":"320105","cityCode":"3201","provinceCode":"32"},{"code":"320105002006","name":"莲花北苑社区居委会","streetCode":"320105002","areaCode":"320105","cityCode":"3201","provinceCode":"32"},{"code":"320105002007","name":"中央商务区社区居委会","streetCode":"320105002","areaCode":"320105","cityCode":"3201","provinceCode":"32"},{"code":"320105002008","name":"清荷北苑社区居委会","streetCode":"320105002","areaCode":"320105","cityCode":"3201","provinceCode":"32"},{"code":"320105002009","name":"金穗花园社区居委会","streetCode":"320105002","areaCode":"320105","cityCode":"3201","provinceCode":"32"},{"code":"320105002010","name":"莲花南苑社区居委会","streetCode":"320105002","areaCode":"320105","cityCode":"3201","provinceCode":"32"},{"code":"320105002011","name":"莲花嘉园社区居委会","streetCode":"320105002","areaCode":"320105","cityCode":"3201","provinceCode":"32"}]},{
            "streetName": "双闸街道","villages": [{"code":"320105003001","name":"双闸街社区居委会","streetCode":"320105003","areaCode":"320105","cityCode":"3201","provinceCode":"32"},{"code":"320105003002","name":"江湾社区居委会","streetCode":"320105003","areaCode":"320105","cityCode":"3201","provinceCode":"32"},{"code":"320105003003","name":"江南社区居委会","streetCode":"320105003","areaCode":"320105","cityCode":"3201","provinceCode":"32"},{"code":"320105003004","name":"双闸社区居委会","streetCode":"320105003","areaCode":"320105","cityCode":"3201","provinceCode":"32"},{"code":"320105003005","name":"红旗社区居委会","streetCode":"320105003","areaCode":"320105","cityCode":"3201","provinceCode":"32"},{"code":"320105003006","name":"五星社区居委会","streetCode":"320105003","areaCode":"320105","cityCode":"3201","provinceCode":"32"},{"code":"320105003007","name":"天保社区居委会","streetCode":"320105003","areaCode":"320105","cityCode":"3201","provinceCode":"32"},{"code":"320105003008","name":"新亭社区居委会","streetCode":"320105003","areaCode":"320105","cityCode":"3201","provinceCode":"32"}]},{
            "streetName": "江心洲街道","villages": [{"code":"320105004001","name":"永定社区居委会","streetCode":"320105004","areaCode":"320105","cityCode":"3201","provinceCode":"32"},{"code":"320105004002","name":"白鹭社区居委会","streetCode":"320105004","areaCode":"320105","cityCode":"3201","provinceCode":"32"},{"code":"320105004003","name":"洲泰社区居委会","streetCode":"320105004","areaCode":"320105","cityCode":"3201","provinceCode":"32"},{"code":"320105004004","name":"洲岛家园社区居委会","streetCode":"320105004","areaCode":"320105","cityCode":"3201","provinceCode":"32"},{"code":"320105004005","name":"洲岛和园社区居委会","streetCode":"320105004","areaCode":"320105","cityCode":"3201","provinceCode":"32"}]},{
            "streetName": "兴隆街道","villages": [{"code":"320105006005","name":"积善社区居委会","streetCode":"320105006","areaCode":"320105","cityCode":"3201","provinceCode":"32"},{"code":"320105006006","name":"桃园居社区居委会","streetCode":"320105006","areaCode":"320105","cityCode":"3201","provinceCode":"32"},{"code":"320105006007","name":"正达社区居委会","streetCode":"320105006","areaCode":"320105","cityCode":"3201","provinceCode":"32"},{"code":"320105006008","name":"月安社区居委会","streetCode":"320105006","areaCode":"320105","cityCode":"3201","provinceCode":"32"},{"code":"320105006009","name":"金典社区居委会","streetCode":"320105006","areaCode":"320105","cityCode":"3201","provinceCode":"32"},{"code":"320105006010","name":"奥体社区居委会","streetCode":"320105006","areaCode":"320105","cityCode":"3201","provinceCode":"32"},{"code":"320105006011","name":"仁河社区居委会","streetCode":"320105006","areaCode":"320105","cityCode":"3201","provinceCode":"32"},{"code":"320105006012","name":"乐山路社区居委会","streetCode":"320105006","areaCode":"320105","cityCode":"3201","provinceCode":"32"},{"code":"320105006013","name":"苍山路社区居委会","streetCode":"320105006","areaCode":"320105","cityCode":"3201","provinceCode":"32"},{"code":"320105006014","name":"香山路社区居委会","streetCode":"320105006","areaCode":"320105","cityCode":"3201","provinceCode":"32"},{"code":"320105006015","name":"融侨社区居委会","streetCode":"320105006","areaCode":"320105","cityCode":"3201","provinceCode":"32"},{"code":"320105006016","name":"上新河社区居委会","streetCode":"320105006","areaCode":"320105","cityCode":"3201","provinceCode":"32"}]},{
            "streetName": "南苑街道","villages": [{"code":"320105007001","name":"国泰民安社区居委会","streetCode":"320105007","areaCode":"320105","cityCode":"3201","provinceCode":"32"},{"code":"320105007003","name":"虹苑社区居委会","streetCode":"320105007","areaCode":"320105","cityCode":"3201","provinceCode":"32"},{"code":"320105007005","name":"爱达社区居委会","streetCode":"320105007","areaCode":"320105","cityCode":"3201","provinceCode":"32"},{"code":"320105007006","name":"兴达社区居委会","streetCode":"320105007","areaCode":"320105","cityCode":"3201","provinceCode":"32"},{"code":"320105007007","name":"健园社区居委会","streetCode":"320105007","areaCode":"320105","cityCode":"3201","provinceCode":"32"},{"code":"320105007008","name":"话园社区居委会","streetCode":"320105007","areaCode":"320105","cityCode":"3201","provinceCode":"32"},{"code":"320105007010","name":"鹭鸣苑社区居委会","streetCode":"320105007","areaCode":"320105","cityCode":"3201","provinceCode":"32"},{"code":"320105007011","name":"吉庆社区居委会","streetCode":"320105007","areaCode":"320105","cityCode":"3201","provinceCode":"32"},{"code":"320105007012","name":"庐山社区居委会","streetCode":"320105007","areaCode":"320105","cityCode":"3201","provinceCode":"32"},{"code":"320105007013","name":"怡康社区居委会","streetCode":"320105007","areaCode":"320105","cityCode":"3201","provinceCode":"32"},{"code":"320105007014","name":"泰山路社区居委会","streetCode":"320105007","areaCode":"320105","cityCode":"3201","provinceCode":"32"},{"code":"320105007015","name":"黄山路社区居委会","streetCode":"320105007","areaCode":"320105","cityCode":"3201","provinceCode":"32"}]},{
            "streetName": "建邺区新城科技园","villages": [{"code":"320105400498","name":"建邺区新城科技园虚拟社区","streetCode":"320105400","areaCode":"320105","cityCode":"3201","provinceCode":"32"}]},{
            "streetName": "建邺区河西中央商务区","villages": [{"code":"320105401498","name":"建邺区河西中央商务区虚拟社区","streetCode":"320105401","areaCode":"320105","cityCode":"3201","provinceCode":"32"}]},{
            "streetName": "建邺区江东商业文化旅游中心区","villages": [{"code":"320105402498","name":"建邺区江东商业文化旅游中心区虚拟社区","streetCode":"320105402","areaCode":"320105","cityCode":"3201","provinceCode":"32"}]},{
            "streetName": "中新南京生态科技岛","villages": [{"code":"320105403498","name":"中新南京生态科技岛虚拟社区","streetCode":"320105403","areaCode":"320105","cityCode":"3201","provinceCode":"32"}]}]
          },
          {
            "areaName": "鼓楼区","streets": [{
            "streetName": "宁海路街道","villages": [{"code":"320106001003","name":"仙霞路社区居委会","streetCode":"320106001","areaCode":"320106","cityCode":"3201","provinceCode":"32"},{"code":"320106001004","name":"苏州路社区居委会","streetCode":"320106001","areaCode":"320106","cityCode":"3201","provinceCode":"32"},{"code":"320106001005","name":"颐和路社区居委会","streetCode":"320106001","areaCode":"320106","cityCode":"3201","provinceCode":"32"},{"code":"320106001007","name":"北京西路社区居委会","streetCode":"320106001","areaCode":"320106","cityCode":"3201","provinceCode":"32"},{"code":"320106001008","name":"天津新村社区居委会","streetCode":"320106001","areaCode":"320106","cityCode":"3201","provinceCode":"32"},{"code":"320106001010","name":"三步两桥社区居委会","streetCode":"320106001","areaCode":"320106","cityCode":"3201","provinceCode":"32"},{"code":"320106001012","name":"山西路社区居委会","streetCode":"320106001","areaCode":"320106","cityCode":"3201","provinceCode":"32"},{"code":"320106001013","name":"康藏路社区居委会","streetCode":"320106001","areaCode":"320106","cityCode":"3201","provinceCode":"32"},{"code":"320106001016","name":"古林社区居委会","streetCode":"320106001","areaCode":"320106","cityCode":"3201","provinceCode":"32"}]},{
            "streetName": "华侨路街道","villages": [{"code":"320106002002","name":"慈悲社社区居委会","streetCode":"320106002","areaCode":"320106","cityCode":"3201","provinceCode":"32"},{"code":"320106002004","name":"广州路社区居委会","streetCode":"320106002","areaCode":"320106","cityCode":"3201","provinceCode":"32"},{"code":"320106002007","name":"五台山社区居委会","streetCode":"320106002","areaCode":"320106","cityCode":"3201","provinceCode":"32"},{"code":"320106002009","name":"龙蟠里社区居委会","streetCode":"320106002","areaCode":"320106","cityCode":"3201","provinceCode":"32"},{"code":"320106002010","name":"虎踞关社区居委会","streetCode":"320106002","areaCode":"320106","cityCode":"3201","provinceCode":"32"},{"code":"320106002012","name":"清凉山社区居委会","streetCode":"320106002","areaCode":"320106","cityCode":"3201","provinceCode":"32"},{"code":"320106002013","name":"石头城社区居委会","streetCode":"320106002","areaCode":"320106","cityCode":"3201","provinceCode":"32"}]},{
            "streetName": "湖南路街道","villages": [{"code":"320106003001","name":"傅厚岗社区居委会","streetCode":"320106003","areaCode":"320106","cityCode":"3201","provinceCode":"32"},{"code":"320106003005","name":"裴家桥社区居委会","streetCode":"320106003","areaCode":"320106","cityCode":"3201","provinceCode":"32"},{"code":"320106003006","name":"丁家桥社区居委会","streetCode":"320106003","areaCode":"320106","cityCode":"3201","provinceCode":"32"},{"code":"320106003007","name":"马台街社区居委会","streetCode":"320106003","areaCode":"320106","cityCode":"3201","provinceCode":"32"},{"code":"320106003010","name":"南秀村社区居委会","streetCode":"320106003","areaCode":"320106","cityCode":"3201","provinceCode":"32"},{"code":"320106003011","name":"青岛路社区居委会","streetCode":"320106003","areaCode":"320106","cityCode":"3201","provinceCode":"32"},{"code":"320106003014","name":"云南路社区居委会","streetCode":"320106003","areaCode":"320106","cityCode":"3201","provinceCode":"32"},{"code":"320106003015","name":"大方巷社区居委会","streetCode":"320106003","areaCode":"320106","cityCode":"3201","provinceCode":"32"}]},{
            "streetName": "中央门街道","villages": [{"code":"320106004002","name":"观音里社区居委会","streetCode":"320106004","areaCode":"320106","cityCode":"3201","provinceCode":"32"},{"code":"320106004003","name":"青石村社区居委会","streetCode":"320106004","areaCode":"320106","cityCode":"3201","provinceCode":"32"},{"code":"320106004004","name":"天正和鸣社区居委会","streetCode":"320106004","areaCode":"320106","cityCode":"3201","provinceCode":"32"},{"code":"320106004005","name":"工人新村社区居委会","streetCode":"320106004","areaCode":"320106","cityCode":"3201","provinceCode":"32"},{"code":"320106004008","name":"紫竹林社区居委会","streetCode":"320106004","areaCode":"320106","cityCode":"3201","provinceCode":"32"},{"code":"320106004009","name":"汇林绿洲社区居委会","streetCode":"320106004","areaCode":"320106","cityCode":"3201","provinceCode":"32"},{"code":"320106004011","name":"将军庙社区居委会","streetCode":"320106004","areaCode":"320106","cityCode":"3201","provinceCode":"32"},{"code":"320106004012","name":"劝业路社区居委会","streetCode":"320106004","areaCode":"320106","cityCode":"3201","provinceCode":"32"},{"code":"320106004013","name":"模范马路社区居委会","streetCode":"320106004","areaCode":"320106","cityCode":"3201","provinceCode":"32"},{"code":"320106004015","name":"三牌楼社区居委会","streetCode":"320106004","areaCode":"320106","cityCode":"3201","provinceCode":"32"},{"code":"320106004016","name":"新门口社区居委会","streetCode":"320106004","areaCode":"320106","cityCode":"3201","provinceCode":"32"},{"code":"320106004017","name":"颂德里社区居委会","streetCode":"320106004","areaCode":"320106","cityCode":"3201","provinceCode":"32"}]},{
            "streetName": "挹江门街道","villages": [{"code":"320106005001","name":"福建路社区居委会","streetCode":"320106005","areaCode":"320106","cityCode":"3201","provinceCode":"32"},{"code":"320106005002","name":"鲁迅园社区居委会","streetCode":"320106005","areaCode":"320106","cityCode":"3201","provinceCode":"32"},{"code":"320106005003","name":"察哈尔路社区居委会","streetCode":"320106005","areaCode":"320106","cityCode":"3201","provinceCode":"32"},{"code":"320106005004","name":"丁山社区居委会","streetCode":"320106005","areaCode":"320106","cityCode":"3201","provinceCode":"32"},{"code":"320106005006","name":"钟阜路社区居委会","streetCode":"320106005","areaCode":"320106","cityCode":"3201","provinceCode":"32"},{"code":"320106005007","name":"妙峰庵社区居委会","streetCode":"320106005","areaCode":"320106","cityCode":"3201","provinceCode":"32"},{"code":"320106005008","name":"戴家巷社区居委会","streetCode":"320106005","areaCode":"320106","cityCode":"3201","provinceCode":"32"},{"code":"320106005009","name":"模范西路社区居委会","streetCode":"320106005","areaCode":"320106","cityCode":"3201","provinceCode":"32"},{"code":"320106005010","name":"回龙桥社区居委会","streetCode":"320106005","areaCode":"320106","cityCode":"3201","provinceCode":"32"}]},{
            "streetName": "江东街道","villages": [{"code":"320106006003","name":"银城花园社区居委会","streetCode":"320106006","areaCode":"320106","cityCode":"3201","provinceCode":"32"},{"code":"320106006005","name":"腾飞园社区居委会","streetCode":"320106006","areaCode":"320106","cityCode":"3201","provinceCode":"32"},{"code":"320106006006","name":"宝地园社区居委会","streetCode":"320106006","areaCode":"320106","cityCode":"3201","provinceCode":"32"},{"code":"320106006007","name":"宝船社区居委会","streetCode":"320106006","areaCode":"320106","cityCode":"3201","provinceCode":"32"},{"code":"320106006008","name":"江滨新寓社区居委会","streetCode":"320106006","areaCode":"320106","cityCode":"3201","provinceCode":"32"},{"code":"320106006010","name":"聚福园社区居委会","streetCode":"320106006","areaCode":"320106","cityCode":"3201","provinceCode":"32"},{"code":"320106006011","name":"清河新寓社区居委会","streetCode":"320106006","areaCode":"320106","cityCode":"3201","provinceCode":"32"},{"code":"320106006012","name":"长阳花园社区居委会","streetCode":"320106006","areaCode":"320106","cityCode":"3201","provinceCode":"32"},{"code":"320106006013","name":"睿城社区居委会","streetCode":"320106006","areaCode":"320106","cityCode":"3201","provinceCode":"32"},{"code":"320106006200","name":"清江村村委会","streetCode":"320106006","areaCode":"320106","cityCode":"3201","provinceCode":"32"},{"code":"320106006201","name":"中保村村委会","streetCode":"320106006","areaCode":"320106","cityCode":"3201","provinceCode":"32"},{"code":"320106006202","name":"江东村村委会","streetCode":"320106006","areaCode":"320106","cityCode":"3201","provinceCode":"32"}]},{
            "streetName": "凤凰街道","villages": [{"code":"320106007001","name":"莫愁新寓社区居委会","streetCode":"320106007","areaCode":"320106","cityCode":"3201","provinceCode":"32"},{"code":"320106007003","name":"凤凰二村社区居委会","streetCode":"320106007","areaCode":"320106","cityCode":"3201","provinceCode":"32"},{"code":"320106007004","name":"凤凰西街社区居委会","streetCode":"320106007","areaCode":"320106","cityCode":"3201","provinceCode":"32"},{"code":"320106007005","name":"西城岚湾社区居委会","streetCode":"320106007","areaCode":"320106","cityCode":"3201","provinceCode":"32"},{"code":"320106007007","name":"凤凰街社区居委会","streetCode":"320106007","areaCode":"320106","cityCode":"3201","provinceCode":"32"},{"code":"320106007009","name":"教工新村社区居委会","streetCode":"320106007","areaCode":"320106","cityCode":"3201","provinceCode":"32"},{"code":"320106007010","name":"凤凰花园社区居委会","streetCode":"320106007","areaCode":"320106","cityCode":"3201","provinceCode":"32"},{"code":"320106007011","name":"华阳佳园社区居委会","streetCode":"320106007","areaCode":"320106","cityCode":"3201","provinceCode":"32"},{"code":"320106007012","name":"苏城苑社区居委会","streetCode":"320106007","areaCode":"320106","cityCode":"3201","provinceCode":"32"},{"code":"320106007013","name":"白云园社区居委会","streetCode":"320106007","areaCode":"320106","cityCode":"3201","provinceCode":"32"},{"code":"320106007014","name":"蓝天园社区居委会","streetCode":"320106007","areaCode":"320106","cityCode":"3201","provinceCode":"32"},{"code":"320106007015","name":"凤凰熙岸社区居委会","streetCode":"320106007","areaCode":"320106","cityCode":"3201","provinceCode":"32"}]},{
            "streetName": "下关街道","villages": [{"code":"320106008001","name":"多伦路社区居委会","streetCode":"320106008","areaCode":"320106","cityCode":"3201","provinceCode":"32"},{"code":"320106008003","name":"东炮台社区居委会","streetCode":"320106008","areaCode":"320106","cityCode":"3201","provinceCode":"32"},{"code":"320106008004","name":"盐大街社区居委会","streetCode":"320106008","areaCode":"320106","cityCode":"3201","provinceCode":"32"},{"code":"320106008005","name":"新民门社区居委会","streetCode":"320106008","areaCode":"320106","cityCode":"3201","provinceCode":"32"},{"code":"320106008006","name":"热河路社区居委会","streetCode":"320106008","areaCode":"320106","cityCode":"3201","provinceCode":"32"},{"code":"320106008008","name":"商埠街社区居委会","streetCode":"320106008","areaCode":"320106","cityCode":"3201","provinceCode":"32"},{"code":"320106008009","name":"唐山路社区居委会","streetCode":"320106008","areaCode":"320106","cityCode":"3201","provinceCode":"32"},{"code":"320106008011","name":"世茂滨江社区居委会","streetCode":"320106008","areaCode":"320106","cityCode":"3201","provinceCode":"32"}]},{
            "streetName": "热河南路街道","villages": [{"code":"320106009002","name":"清江花苑社区居委会","streetCode":"320106009","areaCode":"320106","cityCode":"3201","provinceCode":"32"},{"code":"320106009003","name":"新和园社区居委会","streetCode":"320106009","areaCode":"320106","cityCode":"3201","provinceCode":"32"},{"code":"320106009005","name":"新河村社区居委会","streetCode":"320106009","areaCode":"320106","cityCode":"3201","provinceCode":"32"},{"code":"320106009006","name":"三汊河社区居委会","streetCode":"320106009","areaCode":"320106","cityCode":"3201","provinceCode":"32"},{"code":"320106009007","name":"小桃园社区居委会","streetCode":"320106009","areaCode":"320106","cityCode":"3201","provinceCode":"32"},{"code":"320106009008","name":"白云亭社区居委会","streetCode":"320106009","areaCode":"320106","cityCode":"3201","provinceCode":"32"},{"code":"320106009009","name":"二板桥社区居委会","streetCode":"320106009","areaCode":"320106","cityCode":"3201","provinceCode":"32"},{"code":"320106009010","name":"晏公庙社区居委会","streetCode":"320106009","areaCode":"320106","cityCode":"3201","provinceCode":"32"},{"code":"320106009011","name":"姜圩路社区居委会","streetCode":"320106009","areaCode":"320106","cityCode":"3201","provinceCode":"32"}]},{
            "streetName": "幕府山街道","villages": [{"code":"320106010001","name":"云谷山庄社区居委会","streetCode":"320106010","areaCode":"320106","cityCode":"3201","provinceCode":"32"},{"code":"320106010002","name":"北崮山社区居委会","streetCode":"320106010","areaCode":"320106","cityCode":"3201","provinceCode":"32"},{"code":"320106010003","name":"五塘村社区居委会","streetCode":"320106010","areaCode":"320106","cityCode":"3201","provinceCode":"32"},{"code":"320106010004","name":"白云社区居委会","streetCode":"320106010","areaCode":"320106","cityCode":"3201","provinceCode":"32"},{"code":"320106010005","name":"五塘新村一段社区居委会","streetCode":"320106010","areaCode":"320106","cityCode":"3201","provinceCode":"32"},{"code":"320106010006","name":"五塘新村二段社区居委会","streetCode":"320106010","areaCode":"320106","cityCode":"3201","provinceCode":"32"},{"code":"320106010007","name":"五佰村社区居委会","streetCode":"320106010","areaCode":"320106","cityCode":"3201","provinceCode":"32"},{"code":"320106010008","name":"盛世花园社区居委会","streetCode":"320106010","areaCode":"320106","cityCode":"3201","provinceCode":"32"}]},{
            "streetName": "建宁路街道","villages": [{"code":"320106011002","name":"滨江花园社区居委会","streetCode":"320106011","areaCode":"320106","cityCode":"3201","provinceCode":"32"},{"code":"320106011003","name":"工农新村社区居委会","streetCode":"320106011","areaCode":"320106","cityCode":"3201","provinceCode":"32"},{"code":"320106011004","name":"四平路社区居委会","streetCode":"320106011","areaCode":"320106","cityCode":"3201","provinceCode":"32"},{"code":"320106011005","name":"新民路社区居委会","streetCode":"320106011","areaCode":"320106","cityCode":"3201","provinceCode":"32"},{"code":"320106011007","name":"城河村社区居委会","streetCode":"320106011","areaCode":"320106","cityCode":"3201","provinceCode":"32"},{"code":"320106011008","name":"安乐村社区居委会","streetCode":"320106011","areaCode":"320106","cityCode":"3201","provinceCode":"32"},{"code":"320106011009","name":"五所村社区居委会","streetCode":"320106011","areaCode":"320106","cityCode":"3201","provinceCode":"32"},{"code":"320106011010","name":"金川花苑社区居委会","streetCode":"320106011","areaCode":"320106","cityCode":"3201","provinceCode":"32"}]},{
            "streetName": "宝塔桥街道","villages": [{"code":"320106012001","name":"燕江路社区居委会","streetCode":"320106012","areaCode":"320106","cityCode":"3201","provinceCode":"32"},{"code":"320106012002","name":"方家营社区居委会","streetCode":"320106012","areaCode":"320106","cityCode":"3201","provinceCode":"32"},{"code":"320106012003","name":"幕府西路社区居委会","streetCode":"320106012","areaCode":"320106","cityCode":"3201","provinceCode":"32"},{"code":"320106012004","name":"金陵新四村社区居委会","streetCode":"320106012","areaCode":"320106","cityCode":"3201","provinceCode":"32"},{"code":"320106012005","name":"宝塔桥东街社区居委会","streetCode":"320106012","areaCode":"320106","cityCode":"3201","provinceCode":"32"},{"code":"320106012006","name":"金陵新六村社区居委会","streetCode":"320106012","areaCode":"320106","cityCode":"3201","provinceCode":"32"},{"code":"320106012007","name":"象山社区居委会","streetCode":"320106012","areaCode":"320106","cityCode":"3201","provinceCode":"32"},{"code":"320106012008","name":"金陵二村社区居委会","streetCode":"320106012","areaCode":"320106","cityCode":"3201","provinceCode":"32"},{"code":"320106012009","name":"燕江园社区居委会","streetCode":"320106012","areaCode":"320106","cityCode":"3201","provinceCode":"32"},{"code":"320106012010","name":"水关桥社区居委会","streetCode":"320106012","areaCode":"320106","cityCode":"3201","provinceCode":"32"},{"code":"320106012011","name":"恒盛嘉园社区居委会","streetCode":"320106012","areaCode":"320106","cityCode":"3201","provinceCode":"32"},{"code":"320106012012","name":"依山郡社区居委会","streetCode":"320106012","areaCode":"320106","cityCode":"3201","provinceCode":"32"}]},{
            "streetName": "小市街道","villages": [{"code":"320106013001","name":"东门街社区居委会","streetCode":"320106013","areaCode":"320106","cityCode":"3201","provinceCode":"32"},{"code":"320106013002","name":"东井新村社区居委会","streetCode":"320106013","areaCode":"320106","cityCode":"3201","provinceCode":"32"},{"code":"320106013004","name":"黄家圩社区居委会","streetCode":"320106013","areaCode":"320106","cityCode":"3201","provinceCode":"32"},{"code":"320106013005","name":"东井亭社区居委会","streetCode":"320106013","areaCode":"320106","cityCode":"3201","provinceCode":"32"},{"code":"320106013006","name":"线路新村社区居委会","streetCode":"320106013","areaCode":"320106","cityCode":"3201","provinceCode":"32"},{"code":"320106013008","name":"安怀村社区居委会","streetCode":"320106013","areaCode":"320106","cityCode":"3201","provinceCode":"32"},{"code":"320106013011","name":"小市新村社区居委会","streetCode":"320106013","areaCode":"320106","cityCode":"3201","provinceCode":"32"},{"code":"320106013012","name":"河路道社区居委会","streetCode":"320106013","areaCode":"320106","cityCode":"3201","provinceCode":"32"},{"code":"320106013013","name":"张王庙社区居委会","streetCode":"320106013","areaCode":"320106","cityCode":"3201","provinceCode":"32"}]}]
          },
          {
            "areaName": "浦口区","streets": [{
            "streetName": "泰山街道","villages": [{"code":"320111001005","name":"津浦社区居委会","streetCode":"320111001","areaCode":"320111","cityCode":"3201","provinceCode":"32"},{"code":"320111001009","name":"桥工社区居委会","streetCode":"320111001","areaCode":"320111","cityCode":"3201","provinceCode":"32"},{"code":"320111001012","name":"泰山社区居委会","streetCode":"320111001","areaCode":"320111","cityCode":"3201","provinceCode":"32"},{"code":"320111001013","name":"铁桥社区居委会","streetCode":"320111001","areaCode":"320111","cityCode":"3201","provinceCode":"32"},{"code":"320111001015","name":"农工院社区居委会","streetCode":"320111001","areaCode":"320111","cityCode":"3201","provinceCode":"32"},{"code":"320111001017","name":"桥北社区居委会","streetCode":"320111001","areaCode":"320111","cityCode":"3201","provinceCode":"32"},{"code":"320111001020","name":"大桥社区居委会","streetCode":"320111001","areaCode":"320111","cityCode":"3201","provinceCode":"32"},{"code":"320111001024","name":"码头社区居委会","streetCode":"320111001","areaCode":"320111","cityCode":"3201","provinceCode":"32"},{"code":"320111001026","name":"浦东苑社区居委会","streetCode":"320111001","areaCode":"320111","cityCode":"3201","provinceCode":"32"},{"code":"320111001027","name":"沧波门社区居委会","streetCode":"320111001","areaCode":"320111","cityCode":"3201","provinceCode":"32"},{"code":"320111001028","name":"柳洲社区居委会","streetCode":"320111001","areaCode":"320111","cityCode":"3201","provinceCode":"32"},{"code":"320111001029","name":"锦城社区居委会","streetCode":"320111001","areaCode":"320111","cityCode":"3201","provinceCode":"32"},{"code":"320111001030","name":"天景社区居委会","streetCode":"320111001","areaCode":"320111","cityCode":"3201","provinceCode":"32"},{"code":"320111001031","name":"花旗社区居委会","streetCode":"320111001","areaCode":"320111","cityCode":"3201","provinceCode":"32"},{"code":"320111001032","name":"明发社区居民委员会","streetCode":"320111001","areaCode":"320111","cityCode":"3201","provinceCode":"32"},{"code":"320111001033","name":"大华社区居民委员会","streetCode":"320111001","areaCode":"320111","cityCode":"3201","provinceCode":"32"},{"code":"320111001200","name":"花旗村委会","streetCode":"320111001","areaCode":"320111","cityCode":"3201","provinceCode":"32"}]},{
            "streetName": "顶山街道","villages": [{"code":"320111002001","name":"临泉社区居委会","streetCode":"320111002","areaCode":"320111","cityCode":"3201","provinceCode":"32"},{"code":"320111002003","name":"龙虎巷社区居委会","streetCode":"320111002","areaCode":"320111","cityCode":"3201","provinceCode":"32"},{"code":"320111002009","name":"南苑社区居委会","streetCode":"320111002","areaCode":"320111","cityCode":"3201","provinceCode":"32"},{"code":"320111002011","name":"大新社区居委会","streetCode":"320111002","areaCode":"320111","cityCode":"3201","provinceCode":"32"},{"code":"320111002012","name":"吉庆社区居委会","streetCode":"320111002","areaCode":"320111","cityCode":"3201","provinceCode":"32"},{"code":"320111002014","name":"石佛社区居委会","streetCode":"320111002","areaCode":"320111","cityCode":"3201","provinceCode":"32"},{"code":"320111002015","name":"珍珠路社区居委会","streetCode":"320111002","areaCode":"320111","cityCode":"3201","provinceCode":"32"},{"code":"320111002016","name":"金汤街社区居委会","streetCode":"320111002","areaCode":"320111","cityCode":"3201","provinceCode":"32"},{"code":"320111002017","name":"七里桥社区居委会","streetCode":"320111002","areaCode":"320111","cityCode":"3201","provinceCode":"32"},{"code":"320111002018","name":"临江社区居民委员会","streetCode":"320111002","areaCode":"320111","cityCode":"3201","provinceCode":"32"}]},{
            "streetName": "沿江街道","villages": [{"code":"320111003001","name":"冯墙社区居委会","streetCode":"320111003","areaCode":"320111","cityCode":"3201","provinceCode":"32"},{"code":"320111003002","name":"泰冯社区居委会","streetCode":"320111003","areaCode":"320111","cityCode":"3201","provinceCode":"32"},{"code":"320111003003","name":"路西社区居委会","streetCode":"320111003","areaCode":"320111","cityCode":"3201","provinceCode":"32"},{"code":"320111003004","name":"复兴社区居委会","streetCode":"320111003","areaCode":"320111","cityCode":"3201","provinceCode":"32"},{"code":"320111003005","name":"京新社区居委会","streetCode":"320111003","areaCode":"320111","cityCode":"3201","provinceCode":"32"},{"code":"320111003006","name":"新化社区居委会","streetCode":"320111003","areaCode":"320111","cityCode":"3201","provinceCode":"32"},{"code":"320111003007","name":"水城社区居委会","streetCode":"320111003","areaCode":"320111","cityCode":"3201","provinceCode":"32"},{"code":"320111003008","name":"启新社区居民委员会","streetCode":"320111003","areaCode":"320111","cityCode":"3201","provinceCode":"32"},{"code":"320111003009","name":"润江社区居民委员会","streetCode":"320111003","areaCode":"320111","cityCode":"3201","provinceCode":"32"}]},{
            "streetName": "江浦街道","villages": [{"code":"320111004001","name":"新河社区居委会","streetCode":"320111004","areaCode":"320111","cityCode":"3201","provinceCode":"32"},{"code":"320111004002","name":"人民桥社区居委会","streetCode":"320111004","areaCode":"320111","cityCode":"3201","provinceCode":"32"},{"code":"320111004004","name":"烈士塔社区居委会","streetCode":"320111004","areaCode":"320111","cityCode":"3201","provinceCode":"32"},{"code":"320111004006","name":"求雨山社区居委会","streetCode":"320111004","areaCode":"320111","cityCode":"3201","provinceCode":"32"},{"code":"320111004010","name":"团结社区居委会","streetCode":"320111004","areaCode":"320111","cityCode":"3201","provinceCode":"32"},{"code":"320111004011","name":"白马社区居委会","streetCode":"320111004","areaCode":"320111","cityCode":"3201","provinceCode":"32"},{"code":"320111004013","name":"同心社区居委会","streetCode":"320111004","areaCode":"320111","cityCode":"3201","provinceCode":"32"},{"code":"320111004014","name":"高旺社区居委会","streetCode":"320111004","areaCode":"320111","cityCode":"3201","provinceCode":"32"},{"code":"320111004015","name":"珠江社区居委会","streetCode":"320111004","areaCode":"320111","cityCode":"3201","provinceCode":"32"},{"code":"320111004016","name":"巩固社区居委会","streetCode":"320111004","areaCode":"320111","cityCode":"3201","provinceCode":"32"},{"code":"320111004019","name":"八里社区居委会","streetCode":"320111004","areaCode":"320111","cityCode":"3201","provinceCode":"32"},{"code":"320111004021","name":"老虎桥社区居委会","streetCode":"320111004","areaCode":"320111","cityCode":"3201","provinceCode":"32"},{"code":"320111004022","name":"华光社区居委会","streetCode":"320111004","areaCode":"320111","cityCode":"3201","provinceCode":"32"},{"code":"320111004023","name":"西江口社区居委会","streetCode":"320111004","areaCode":"320111","cityCode":"3201","provinceCode":"32"},{"code":"320111004024","name":"新合社区居委会","streetCode":"320111004","areaCode":"320111","cityCode":"3201","provinceCode":"32"}]},{
            "streetName": "桥林街道","villages": [{"code":"320111005001","name":"石碛社区居委会","streetCode":"320111005","areaCode":"320111","cityCode":"3201","provinceCode":"32"},{"code":"320111005002","name":"明因寺社区居委会","streetCode":"320111005","areaCode":"320111","cityCode":"3201","provinceCode":"32"},{"code":"320111005003","name":"福音社区居委会","streetCode":"320111005","areaCode":"320111","cityCode":"3201","provinceCode":"32"},{"code":"320111005004","name":"兰花塘社区居委会","streetCode":"320111005","areaCode":"320111","cityCode":"3201","provinceCode":"32"},{"code":"320111005005","name":"百合社区居委会","streetCode":"320111005","areaCode":"320111","cityCode":"3201","provinceCode":"32"},{"code":"320111005006","name":"双垅社区居委会","streetCode":"320111005","areaCode":"320111","cityCode":"3201","provinceCode":"32"},{"code":"320111005007","name":"滨江社区居委会","streetCode":"320111005","areaCode":"320111","cityCode":"3201","provinceCode":"32"},{"code":"320111005008","name":"西山社区居委会","streetCode":"320111005","areaCode":"320111","cityCode":"3201","provinceCode":"32"},{"code":"320111005009","name":"高汤社区居委会","streetCode":"320111005","areaCode":"320111","cityCode":"3201","provinceCode":"32"},{"code":"320111005010","name":"刘公社区居委会","streetCode":"320111005","areaCode":"320111","cityCode":"3201","provinceCode":"32"},{"code":"320111005011","name":"乌江社区居委会","streetCode":"320111005","areaCode":"320111","cityCode":"3201","provinceCode":"32"},{"code":"320111005012","name":"林蒲社区居委会","streetCode":"320111005","areaCode":"320111","cityCode":"3201","provinceCode":"32"},{"code":"320111005208","name":"七联村委会","streetCode":"320111005","areaCode":"320111","cityCode":"3201","provinceCode":"32"},{"code":"320111005212","name":"勤丰村委会","streetCode":"320111005","areaCode":"320111","cityCode":"3201","provinceCode":"32"},{"code":"320111005214","name":"双庙村委会","streetCode":"320111005","areaCode":"320111","cityCode":"3201","provinceCode":"32"},{"code":"320111005216","name":"高汤村委会","streetCode":"320111005","areaCode":"320111","cityCode":"3201","provinceCode":"32"},{"code":"320111005217","name":"刘公村委会","streetCode":"320111005","areaCode":"320111","cityCode":"3201","provinceCode":"32"},{"code":"320111005218","name":"周营村委会","streetCode":"320111005","areaCode":"320111","cityCode":"3201","provinceCode":"32"},{"code":"320111005221","name":"南驿村委会","streetCode":"320111005","areaCode":"320111","cityCode":"3201","provinceCode":"32"},{"code":"320111005222","name":"林山村委会","streetCode":"320111005","areaCode":"320111","cityCode":"3201","provinceCode":"32"},{"code":"320111005223","name":"林东村委会","streetCode":"320111005","areaCode":"320111","cityCode":"3201","provinceCode":"32"},{"code":"320111005225","name":"茶棚村委会","streetCode":"320111005","areaCode":"320111","cityCode":"3201","provinceCode":"32"}]},{
            "streetName": "汤泉街道","villages": [{"code":"320111006001","name":"金泉社区居委会","streetCode":"320111006","areaCode":"320111","cityCode":"3201","provinceCode":"32"},{"code":"320111006002","name":"九龙社区居委会","streetCode":"320111006","areaCode":"320111","cityCode":"3201","provinceCode":"32"},{"code":"320111006003","name":"高华社区居委会","streetCode":"320111006","areaCode":"320111","cityCode":"3201","provinceCode":"32"},{"code":"320111006004","name":"三泉社区居委会","streetCode":"320111006","areaCode":"320111","cityCode":"3201","provinceCode":"32"},{"code":"320111006005","name":"泉西社区居委会","streetCode":"320111006","areaCode":"320111","cityCode":"3201","provinceCode":"32"},{"code":"320111006006","name":"龙华社区居委会","streetCode":"320111006","areaCode":"320111","cityCode":"3201","provinceCode":"32"},{"code":"320111006007","name":"龙山社区居委会","streetCode":"320111006","areaCode":"320111","cityCode":"3201","provinceCode":"32"},{"code":"320111006008","name":"龙井社区居委会","streetCode":"320111006","areaCode":"320111","cityCode":"3201","provinceCode":"32"},{"code":"320111006009","name":"新金社区居委会","streetCode":"320111006","areaCode":"320111","cityCode":"3201","provinceCode":"32"},{"code":"320111006203","name":"泉东村委会","streetCode":"320111006","areaCode":"320111","cityCode":"3201","provinceCode":"32"},{"code":"320111006205","name":"陈庄村委会","streetCode":"320111006","areaCode":"320111","cityCode":"3201","provinceCode":"32"},{"code":"320111006206","name":"瓦殿村委会","streetCode":"320111006","areaCode":"320111","cityCode":"3201","provinceCode":"32"},{"code":"320111006207","name":"滴水珠村委会","streetCode":"320111006","areaCode":"320111","cityCode":"3201","provinceCode":"32"},{"code":"320111006208","name":"大黄村委会","streetCode":"320111006","areaCode":"320111","cityCode":"3201","provinceCode":"32"}]},{
            "streetName": "盘城街道","villages": [{"code":"320111007001","name":"盘城社区居委会","streetCode":"320111007","areaCode":"320111","cityCode":"3201","provinceCode":"32"},{"code":"320111007002","name":"江北社区居委会","streetCode":"320111007","areaCode":"320111","cityCode":"3201","provinceCode":"32"},{"code":"320111007003","name":"新华社区居委会","streetCode":"320111007","areaCode":"320111","cityCode":"3201","provinceCode":"32"},{"code":"320111007004","name":"板桥社区居委会","streetCode":"320111007","areaCode":"320111","cityCode":"3201","provinceCode":"32"},{"code":"320111007005","name":"永丰社区居委会","streetCode":"320111007","areaCode":"320111","cityCode":"3201","provinceCode":"32"},{"code":"320111007006","name":"老幼岗社区居委会","streetCode":"320111007","areaCode":"320111","cityCode":"3201","provinceCode":"32"},{"code":"320111007007","name":"双城社区居委会","streetCode":"320111007","areaCode":"320111","cityCode":"3201","provinceCode":"32"},{"code":"320111007008","name":"落桥社区居委会","streetCode":"320111007","areaCode":"320111","cityCode":"3201","provinceCode":"32"},{"code":"320111007009","name":"渡桥社区居委会","streetCode":"320111007","areaCode":"320111","cityCode":"3201","provinceCode":"32"}]},{
            "streetName": "星甸街道","villages": [{"code":"320111008001","name":"星兴社区居委会","streetCode":"320111008","areaCode":"320111","cityCode":"3201","provinceCode":"32"},{"code":"320111008002","name":"万隆社区居委会","streetCode":"320111008","areaCode":"320111","cityCode":"3201","provinceCode":"32"},{"code":"320111008003","name":"石窑社区居委会","streetCode":"320111008","areaCode":"320111","cityCode":"3201","provinceCode":"32"},{"code":"320111008004","name":"解放桥社区居委会","streetCode":"320111008","areaCode":"320111","cityCode":"3201","provinceCode":"32"},{"code":"320111008005","name":"石桥社区居委会","streetCode":"320111008","areaCode":"320111","cityCode":"3201","provinceCode":"32"},{"code":"320111008006","name":"高庙社区居委会","streetCode":"320111008","areaCode":"320111","cityCode":"3201","provinceCode":"32"},{"code":"320111008007","name":"石村社区居委会","streetCode":"320111008","areaCode":"320111","cityCode":"3201","provinceCode":"32"},{"code":"320111008200","name":"后圩村委会","streetCode":"320111008","areaCode":"320111","cityCode":"3201","provinceCode":"32"},{"code":"320111008201","name":"十里村委会","streetCode":"320111008","areaCode":"320111","cityCode":"3201","provinceCode":"32"},{"code":"320111008202","name":"汤集村委会","streetCode":"320111008","areaCode":"320111","cityCode":"3201","provinceCode":"32"},{"code":"320111008203","name":"双山村委会","streetCode":"320111008","areaCode":"320111","cityCode":"3201","provinceCode":"32"},{"code":"320111008204","name":"高庙村委会","streetCode":"320111008","areaCode":"320111","cityCode":"3201","provinceCode":"32"},{"code":"320111008205","name":"石村村委会","streetCode":"320111008","areaCode":"320111","cityCode":"3201","provinceCode":"32"},{"code":"320111008206","name":"山西村委会","streetCode":"320111008","areaCode":"320111","cityCode":"3201","provinceCode":"32"},{"code":"320111008207","name":"九华村委会","streetCode":"320111008","areaCode":"320111","cityCode":"3201","provinceCode":"32"},{"code":"320111008208","name":"王村村委会","streetCode":"320111008","areaCode":"320111","cityCode":"3201","provinceCode":"32"}]},{
            "streetName": "永宁街道","villages": [{"code":"320111009001","name":"永宁社区居委会","streetCode":"320111009","areaCode":"320111","cityCode":"3201","provinceCode":"32"},{"code":"320111009003","name":"东葛社区居委会","streetCode":"320111009","areaCode":"320111","cityCode":"3201","provinceCode":"32"},{"code":"320111009004","name":"高丽社区居委会","streetCode":"320111009","areaCode":"320111","cityCode":"3201","provinceCode":"32"},{"code":"320111009005","name":"西葛社区居委会","streetCode":"320111009","areaCode":"320111","cityCode":"3201","provinceCode":"32"},{"code":"320111009006","name":"大桥社区居委会","streetCode":"320111009","areaCode":"320111","cityCode":"3201","provinceCode":"32"},{"code":"320111009007","name":"侯冲社区居委会","streetCode":"320111009","areaCode":"320111","cityCode":"3201","provinceCode":"32"},{"code":"320111009008","name":"大堰社区居委会","streetCode":"320111009","areaCode":"320111","cityCode":"3201","provinceCode":"32"},{"code":"320111009009","name":"张圩社区居委会","streetCode":"320111009","areaCode":"320111","cityCode":"3201","provinceCode":"32"},{"code":"320111009212","name":"友联村委会","streetCode":"320111009","areaCode":"320111","cityCode":"3201","provinceCode":"32"},{"code":"320111009213","name":"青山村委会","streetCode":"320111009","areaCode":"320111","cityCode":"3201","provinceCode":"32"},{"code":"320111009215","name":"联合村委会","streetCode":"320111009","areaCode":"320111","cityCode":"3201","provinceCode":"32"}]},{
            "streetName": "老山林场","villages": [{"code":"320111400001","name":"岔路口社区居委会","streetCode":"320111400","areaCode":"320111","cityCode":"3201","provinceCode":"32"}]},{
            "streetName": "汤泉农场","villages": [{"code":"320111401001","name":"汤泉农场居委会","streetCode":"320111401","areaCode":"320111","cityCode":"3201","provinceCode":"32"}]},{
            "streetName": "珍珠泉旅游度假区","villages": [{"code":"320111402001","name":"珍珠泉社区居委会","streetCode":"320111402","areaCode":"320111","cityCode":"3201","provinceCode":"32"}]},{
            "streetName": "浦口经济开发区","villages": [{"code":"320111403498","name":"浦口经济开发区虚拟社区","streetCode":"320111403","areaCode":"320111","cityCode":"3201","provinceCode":"32"}]},{
            "streetName": "南京浦口高新技术产业开发区","villages": [{"code":"320111404498","name":"南京浦口高新技术产业开发区虚拟社区","streetCode":"320111404","areaCode":"320111","cityCode":"3201","provinceCode":"32"}]},{
            "streetName": "高新技术开发区","villages": [{"code":"320111450498","name":"高新技术开发区虚拟社区","streetCode":"320111450","areaCode":"320111","cityCode":"3201","provinceCode":"32"}]}]
          },
          {
            "areaName": "栖霞区","streets": [{
            "streetName": "尧化街道","villages": [{"code":"320113001001","name":"尧化社区居委会","streetCode":"320113001","areaCode":"320113","cityCode":"3201","provinceCode":"32"},{"code":"320113001002","name":"尧石二村社区居委会","streetCode":"320113001","areaCode":"320113","cityCode":"3201","provinceCode":"32"},{"code":"320113001003","name":"尧安新村社区居委会","streetCode":"320113001","areaCode":"320113","cityCode":"3201","provinceCode":"32"},{"code":"320113001006","name":"尧辰社区居委会","streetCode":"320113001","areaCode":"320113","cityCode":"3201","provinceCode":"32"},{"code":"320113001007","name":"尧新社区居委会","streetCode":"320113001","areaCode":"320113","cityCode":"3201","provinceCode":"32"},{"code":"320113001008","name":"尧化新村社区居委会","streetCode":"320113001","areaCode":"320113","cityCode":"3201","provinceCode":"32"},{"code":"320113001009","name":"金尧花园社区居委会","streetCode":"320113001","areaCode":"320113","cityCode":"3201","provinceCode":"32"},{"code":"320113001013","name":"青田雅居社区居委会","streetCode":"320113001","areaCode":"320113","cityCode":"3201","provinceCode":"32"},{"code":"320113001015","name":"尧胜社区居委会","streetCode":"320113001","areaCode":"320113","cityCode":"3201","provinceCode":"32"},{"code":"320113001016","name":"王子楼社区居委会","streetCode":"320113001","areaCode":"320113","cityCode":"3201","provinceCode":"32"},{"code":"320113001017","name":"吴边社区居委会","streetCode":"320113001","areaCode":"320113","cityCode":"3201","provinceCode":"32"},{"code":"320113001018","name":"翠林山庄社区居委会","streetCode":"320113001","areaCode":"320113","cityCode":"3201","provinceCode":"32"},{"code":"320113001019","name":"尧林仙居社区居委会","streetCode":"320113001","areaCode":"320113","cityCode":"3201","provinceCode":"32"}]},{
            "streetName": "马群街道","villages": [{"code":"320113002001","name":"马群社区居委会","streetCode":"320113002","areaCode":"320113","cityCode":"3201","provinceCode":"32"},{"code":"320113002002","name":"青马社区居委会","streetCode":"320113002","areaCode":"320113","cityCode":"3201","provinceCode":"32"},{"code":"320113002003","name":"果场社区居委会","streetCode":"320113002","areaCode":"320113","cityCode":"3201","provinceCode":"32"},{"code":"320113002007","name":"花岗社区居委会","streetCode":"320113002","areaCode":"320113","cityCode":"3201","provinceCode":"32"},{"code":"320113002008","name":"芝嘉花园社区居委会","streetCode":"320113002","areaCode":"320113","cityCode":"3201","provinceCode":"32"},{"code":"320113002009","name":"百水家园社区居委会","streetCode":"320113002","areaCode":"320113","cityCode":"3201","provinceCode":"32"},{"code":"320113002010","name":"百水芊城社区居委会","streetCode":"320113002","areaCode":"320113","cityCode":"3201","provinceCode":"32"},{"code":"320113002011","name":"宁康苑社区居委会","streetCode":"320113002","areaCode":"320113","cityCode":"3201","provinceCode":"32"},{"code":"320113002012","name":"润康苑社区居委会","streetCode":"320113002","areaCode":"320113","cityCode":"3201","provinceCode":"32"},{"code":"320113002013","name":"文康苑社区居委会","streetCode":"320113002","areaCode":"320113","cityCode":"3201","provinceCode":"32"},{"code":"320113002014","name":"馨康苑社区居委会","streetCode":"320113002","areaCode":"320113","cityCode":"3201","provinceCode":"32"},{"code":"320113002015","name":"南湾营社区居委会","streetCode":"320113002","areaCode":"320113","cityCode":"3201","provinceCode":"32"},{"code":"320113002016","name":"石坝社区居委会","streetCode":"320113002","areaCode":"320113","cityCode":"3201","provinceCode":"32"},{"code":"320113002017","name":"紫金社区居委会","streetCode":"320113002","areaCode":"320113","cityCode":"3201","provinceCode":"32"},{"code":"320113002018","name":"金陵驿社区居委会","streetCode":"320113002","areaCode":"320113","cityCode":"3201","provinceCode":"32"},{"code":"320113002019","name":"向上社区居委会","streetCode":"320113002","areaCode":"320113","cityCode":"3201","provinceCode":"32"},{"code":"320113002020","name":"蛇盘社区居委会","streetCode":"320113002","areaCode":"320113","cityCode":"3201","provinceCode":"32"}]},{
            "streetName": "迈阜桥街道","villages": [{"code":"320113003001","name":"长营社区居委会","streetCode":"320113003","areaCode":"320113","cityCode":"3201","provinceCode":"32"},{"code":"320113003002","name":"南塑社区居委会","streetCode":"320113003","areaCode":"320113","cityCode":"3201","provinceCode":"32"},{"code":"320113003003","name":"合班村社区居委会","streetCode":"320113003","areaCode":"320113","cityCode":"3201","provinceCode":"32"},{"code":"320113003004","name":"金宁新村社区居委会","streetCode":"320113003","areaCode":"320113","cityCode":"3201","provinceCode":"32"},{"code":"320113003005","name":"十字街社区居委会","streetCode":"320113003","areaCode":"320113","cityCode":"3201","provinceCode":"32"},{"code":"320113003006","name":"东井村社区居委会","streetCode":"320113003","areaCode":"320113","cityCode":"3201","provinceCode":"32"},{"code":"320113003007","name":"晓庄社区居委会","streetCode":"320113003","areaCode":"320113","cityCode":"3201","provinceCode":"32"},{"code":"320113003008","name":"华电社区居委会","streetCode":"320113003","areaCode":"320113","cityCode":"3201","provinceCode":"32"},{"code":"320113003009","name":"迈皋桥街社区居委会","streetCode":"320113003","areaCode":"320113","cityCode":"3201","provinceCode":"32"},{"code":"320113003011","name":"万寿村社区居委会","streetCode":"320113003","areaCode":"320113","cityCode":"3201","provinceCode":"32"},{"code":"320113003012","name":"兴卫村社区居委会","streetCode":"320113003","areaCode":"320113","cityCode":"3201","provinceCode":"32"},{"code":"320113003013","name":"奋斗社区居委会","streetCode":"320113003","areaCode":"320113","cityCode":"3201","provinceCode":"32"},{"code":"320113003014","name":"春晓园社区居委会","streetCode":"320113003","areaCode":"320113","cityCode":"3201","provinceCode":"32"},{"code":"320113003015","name":"汇虹园社区居委会","streetCode":"320113003","areaCode":"320113","cityCode":"3201","provinceCode":"32"},{"code":"320113003016","name":"景和园社区居委会","streetCode":"320113003","areaCode":"320113","cityCode":"3201","provinceCode":"32"},{"code":"320113003017","name":"山水园社区居委会","streetCode":"320113003","areaCode":"320113","cityCode":"3201","provinceCode":"32"},{"code":"320113003018","name":"馨合园社区居民委员会","streetCode":"320113003","areaCode":"320113","cityCode":"3201","provinceCode":"32"},{"code":"320113003019","name":"瑞丰园社区居民委员会","streetCode":"320113003","areaCode":"320113","cityCode":"3201","provinceCode":"32"},{"code":"320113003020","name":"秋韵园社区居民委员会","streetCode":"320113003","areaCode":"320113","cityCode":"3201","provinceCode":"32"}]},{
            "streetName": "燕子矶街道","villages": [{"code":"320113004001","name":"太平村社区居委会","streetCode":"320113004","areaCode":"320113","cityCode":"3201","provinceCode":"32"},{"code":"320113004002","name":"晓庄村社区居委会","streetCode":"320113004","areaCode":"320113","cityCode":"3201","provinceCode":"32"},{"code":"320113004003","name":"幕府山庄社区居委会","streetCode":"320113004","areaCode":"320113","cityCode":"3201","provinceCode":"32"},{"code":"320113004004","name":"吉祥庵社区居委会","streetCode":"320113004","areaCode":"320113","cityCode":"3201","provinceCode":"32"},{"code":"320113004006","name":"南化新村社区居委会","streetCode":"320113004","areaCode":"320113","cityCode":"3201","provinceCode":"32"},{"code":"320113004007","name":"电瓷新村社区居委会","streetCode":"320113004","areaCode":"320113","cityCode":"3201","provinceCode":"32"},{"code":"320113004008","name":"石化村社区居委会","streetCode":"320113004","areaCode":"320113","cityCode":"3201","provinceCode":"32"},{"code":"320113004009","name":"化纤新村社区居委会","streetCode":"320113004","areaCode":"320113","cityCode":"3201","provinceCode":"32"},{"code":"320113004010","name":"燕子矶社区居委会","streetCode":"320113004","areaCode":"320113","cityCode":"3201","provinceCode":"32"},{"code":"320113004011","name":"燕华花园社区居委会","streetCode":"320113004","areaCode":"320113","cityCode":"3201","provinceCode":"32"},{"code":"320113004012","name":"祥和雅苑社区居委会","streetCode":"320113004","areaCode":"320113","cityCode":"3201","provinceCode":"32"},{"code":"320113004013","name":"下庙村社区居委会","streetCode":"320113004","areaCode":"320113","cityCode":"3201","provinceCode":"32"},{"code":"320113004014","name":"柳塘村社区居委会","streetCode":"320113004","areaCode":"320113","cityCode":"3201","provinceCode":"32"}]},{
            "streetName": "栖霞街道","villages": [{"code":"320113005002","name":"银矿地质社区居委会","streetCode":"320113005","areaCode":"320113","cityCode":"3201","provinceCode":"32"},{"code":"320113005003","name":"栖霞社区居委会","streetCode":"320113005","areaCode":"320113","cityCode":"3201","provinceCode":"32"},{"code":"320113005004","name":"滨江社区居委会","streetCode":"320113005","areaCode":"320113","cityCode":"3201","provinceCode":"32"},{"code":"320113005005","name":"南炼新村社区居委会","streetCode":"320113005","areaCode":"320113","cityCode":"3201","provinceCode":"32"},{"code":"320113005006","name":"南水新村社区居委会","streetCode":"320113005","areaCode":"320113","cityCode":"3201","provinceCode":"32"},{"code":"320113005007","name":"栖化新村社区居委会","streetCode":"320113005","areaCode":"320113","cityCode":"3201","provinceCode":"32"},{"code":"320113005008","name":"甘家巷社区居委会","streetCode":"320113005","areaCode":"320113","cityCode":"3201","provinceCode":"32"},{"code":"320113005011","name":"江南水泥厂社区居委会","streetCode":"320113005","areaCode":"320113","cityCode":"3201","provinceCode":"32"},{"code":"320113005017","name":"红梅村社区居委会","streetCode":"320113005","areaCode":"320113","cityCode":"3201","provinceCode":"32"},{"code":"320113005024","name":"石埠桥社区居委会","streetCode":"320113005","areaCode":"320113","cityCode":"3201","provinceCode":"32"},{"code":"320113005025","name":"五福家园社区居委会","streetCode":"320113005","areaCode":"320113","cityCode":"3201","provinceCode":"32"},{"code":"320113005202","name":"石埠桥村村委会","streetCode":"320113005","areaCode":"320113","cityCode":"3201","provinceCode":"32"},{"code":"320113005206","name":"新合村村委会","streetCode":"320113005","areaCode":"320113","cityCode":"3201","provinceCode":"32"},{"code":"320113005215","name":"摄山村村委会","streetCode":"320113005","areaCode":"320113","cityCode":"3201","provinceCode":"32"}]},{
            "streetName": "龙潭街道","villages": [{"code":"320113006002","name":"中国水泥厂社区居委会","streetCode":"320113006","areaCode":"320113","cityCode":"3201","provinceCode":"32"},{"code":"320113006007","name":"龙潭街社区居委会","streetCode":"320113006","areaCode":"320113","cityCode":"3201","provinceCode":"32"},{"code":"320113006008","name":"丽江苑社区居委会","streetCode":"320113006","areaCode":"320113","cityCode":"3201","provinceCode":"32"},{"code":"320113006010","name":"怡江苑社区居委会","streetCode":"320113006","areaCode":"320113","cityCode":"3201","provinceCode":"32"},{"code":"320113006013","name":"靖安佳园社区居委会","streetCode":"320113006","areaCode":"320113","cityCode":"3201","provinceCode":"32"},{"code":"320113006014","name":"龙岸花园社区居委会","streetCode":"320113006","areaCode":"320113","cityCode":"3201","provinceCode":"32"},{"code":"320113006200","name":"兴隆村村委会","streetCode":"320113006","areaCode":"320113","cityCode":"3201","provinceCode":"32"},{"code":"320113006202","name":"花园村村委会","streetCode":"320113006","areaCode":"320113","cityCode":"3201","provinceCode":"32"},{"code":"320113006203","name":"上首村村委会","streetCode":"320113006","areaCode":"320113","cityCode":"3201","provinceCode":"32"},{"code":"320113006206","name":"营防村村委会","streetCode":"320113006","areaCode":"320113","cityCode":"3201","provinceCode":"32"},{"code":"320113006207","name":"大棚村村委会","streetCode":"320113006","areaCode":"320113","cityCode":"3201","provinceCode":"32"},{"code":"320113006208","name":"南中村村委会","streetCode":"320113006","areaCode":"320113","cityCode":"3201","provinceCode":"32"},{"code":"320113006209","name":"飞花村村委会","streetCode":"320113006","areaCode":"320113","cityCode":"3201","provinceCode":"32"},{"code":"320113006210","name":"上坝村村委会","streetCode":"320113006","areaCode":"320113","cityCode":"3201","provinceCode":"32"},{"code":"320113006211","name":"长江村村委会","streetCode":"320113006","areaCode":"320113","cityCode":"3201","provinceCode":"32"},{"code":"320113006212","name":"马渡村村委会","streetCode":"320113006","areaCode":"320113","cityCode":"3201","provinceCode":"32"},{"code":"320113006213","name":"太平村村委会","streetCode":"320113006","areaCode":"320113","cityCode":"3201","provinceCode":"32"},{"code":"320113006214","name":"靖安村村委会","streetCode":"320113006","areaCode":"320113","cityCode":"3201","provinceCode":"32"},{"code":"320113006215","name":"联盟村村委会","streetCode":"320113006","areaCode":"320113","cityCode":"3201","provinceCode":"32"},{"code":"320113006216","name":"孙庄村村委会","streetCode":"320113006","areaCode":"320113","cityCode":"3201","provinceCode":"32"},{"code":"320113006217","name":"滨江村村委会","streetCode":"320113006","areaCode":"320113","cityCode":"3201","provinceCode":"32"},{"code":"320113006218","name":"陈店村村委会","streetCode":"320113006","areaCode":"320113","cityCode":"3201","provinceCode":"32"},{"code":"320113006219","name":"龙潭村村委会","streetCode":"320113006","areaCode":"320113","cityCode":"3201","provinceCode":"32"}]},{
            "streetName": "仙林街道","villages": [{"code":"320113007001","name":"仙林新村社区居委会","streetCode":"320113007","areaCode":"320113","cityCode":"3201","provinceCode":"32"},{"code":"320113007002","name":"仙鹤社区居委会","streetCode":"320113007","areaCode":"320113","cityCode":"3201","provinceCode":"32"},{"code":"320113007003","name":"杉湖路社区居委会","streetCode":"320113007","areaCode":"320113","cityCode":"3201","provinceCode":"32"},{"code":"320113007004","name":"亚东社区居委会","streetCode":"320113007","areaCode":"320113","cityCode":"3201","provinceCode":"32"}]},{
            "streetName": "八卦洲街道","villages": [{"code":"320113009001","name":"八卦花园社区居委会","streetCode":"320113009","areaCode":"320113","cityCode":"3201","provinceCode":"32"},{"code":"320113009200","name":"新闸村村委会","streetCode":"320113009","areaCode":"320113","cityCode":"3201","provinceCode":"32"},{"code":"320113009204","name":"中桥村村委会","streetCode":"320113009","areaCode":"320113","cityCode":"3201","provinceCode":"32"},{"code":"320113009205","name":"外沙村村委会","streetCode":"320113009","areaCode":"320113","cityCode":"3201","provinceCode":"32"},{"code":"320113009207","name":"下坝村村委会","streetCode":"320113009","areaCode":"320113","cityCode":"3201","provinceCode":"32"},{"code":"320113009208","name":"东江村村委会","streetCode":"320113009","areaCode":"320113","cityCode":"3201","provinceCode":"32"},{"code":"320113009209","name":"上坝村村委会","streetCode":"320113009","areaCode":"320113","cityCode":"3201","provinceCode":"32"},{"code":"320113009211","name":"七里村村委会","streetCode":"320113009","areaCode":"320113","cityCode":"3201","provinceCode":"32"}]},{
            "streetName": "西岗街道","villages": [{"code":"320113010001","name":"西岗社区居委会","streetCode":"320113010","areaCode":"320113","cityCode":"3201","provinceCode":"32"},{"code":"320113010002","name":"闻兰社区居委会","streetCode":"320113010","areaCode":"320113","cityCode":"3201","provinceCode":"32"},{"code":"320113010003","name":"观梅社区居委会","streetCode":"320113010","areaCode":"320113","cityCode":"3201","provinceCode":"32"},{"code":"320113010004","name":"听竹社区居委会","streetCode":"320113010","areaCode":"320113","cityCode":"3201","provinceCode":"32"},{"code":"320113010007","name":"齐民路社区居民委员会","streetCode":"320113010","areaCode":"320113","cityCode":"3201","provinceCode":"32"},{"code":"320113010201","name":"孟北村委会","streetCode":"320113010","areaCode":"320113","cityCode":"3201","provinceCode":"32"},{"code":"320113010202","name":"桦墅村委会","streetCode":"320113010","areaCode":"320113","cityCode":"3201","provinceCode":"32"}]},{
            "streetName": "龙潭监狱","villages": [{"code":"320113400498","name":"龙潭监狱虚拟社区","streetCode":"320113400","areaCode":"320113","cityCode":"3201","provinceCode":"32"}]},{
            "streetName": "栖霞经济开发区","villages": [{"code":"320113401001","name":"东阳社区居委会","streetCode":"320113401","areaCode":"320113","cityCode":"3201","provinceCode":"32"},{"code":"320113401002","name":"西花社区居委会","streetCode":"320113401","areaCode":"320113","cityCode":"3201","provinceCode":"32"}]},{
            "streetName": "南京龙潭物流园","villages": [{"code":"320113402498","name":"南京龙潭物流园虚拟社区","streetCode":"320113402","areaCode":"320113","cityCode":"3201","provinceCode":"32"}]},{
            "streetName": "南京市靖安三江口工业园","villages": [{"code":"320113403498","name":"靖安三江口工业园虚拟社区","streetCode":"320113403","areaCode":"320113","cityCode":"3201","provinceCode":"32"}]},{
            "streetName": "南京市马群科技园","villages": [{"code":"320113405498","name":"南京市马群科技园虚拟社区","streetCode":"320113405","areaCode":"320113","cityCode":"3201","provinceCode":"32"}]},{
            "streetName": "南京仙林大学城","villages": [{"code":"320113406498","name":"南京仙林大学城虚拟社区","streetCode":"320113406","areaCode":"320113","cityCode":"3201","provinceCode":"32"}]},{
            "streetName": "江苏生命科技创新园","villages": [{"code":"320113407498","name":"江苏生命科技创新园虚拟社区","streetCode":"320113407","areaCode":"320113","cityCode":"3201","provinceCode":"32"}]},{
            "streetName": "南大科学园","villages": [{"code":"320113409498","name":"南大科学园虚拟社区","streetCode":"320113409","areaCode":"320113","cityCode":"3201","provinceCode":"32"}]},{
            "streetName": "南京紫东国际创意园","villages": [{"code":"320113410498","name":"南京紫东国际创意园虚拟社区","streetCode":"320113410","areaCode":"320113","cityCode":"3201","provinceCode":"32"}]},{
            "streetName": "南京金港科技创业中心","villages": [{"code":"320113411498","name":"南京金港科技创业中心虚拟社区","streetCode":"320113411","areaCode":"320113","cityCode":"3201","provinceCode":"32"}]},{
            "streetName": "仙林智谷","villages": [{"code":"320113413498","name":"仙林智谷虚拟社区","streetCode":"320113413","areaCode":"320113","cityCode":"3201","provinceCode":"32"}]},{
            "streetName": "南京经济技术开发区","villages": [{"code":"320113450498","name":"南京经济技术开发区虚拟社区","streetCode":"320113450","areaCode":"320113","cityCode":"3201","provinceCode":"32"}]}]
          },
          {
            "areaName": "雨花台区","streets": [{
            "streetName": "雨花街道","villages": [{"code":"320114001001","name":"雨花社区居委会","streetCode":"320114001","areaCode":"320114","cityCode":"3201","provinceCode":"32"},{"code":"320114001002","name":"丁墙社区居委会","streetCode":"320114001","areaCode":"320114","cityCode":"3201","provinceCode":"32"},{"code":"320114001003","name":"康盛社区居委会","streetCode":"320114001","areaCode":"320114","cityCode":"3201","provinceCode":"32"},{"code":"320114001004","name":"花神庙居委会","streetCode":"320114001","areaCode":"320114","cityCode":"3201","provinceCode":"32"},{"code":"320114001005","name":"翠竹园居委会","streetCode":"320114001","areaCode":"320114","cityCode":"3201","provinceCode":"32"},{"code":"320114001006","name":"翠岛花城居委会","streetCode":"320114001","areaCode":"320114","cityCode":"3201","provinceCode":"32"},{"code":"320114001007","name":"普德村居委会","streetCode":"320114001","areaCode":"320114","cityCode":"3201","provinceCode":"32"},{"code":"320114001008","name":"雨花台居委会","streetCode":"320114001","areaCode":"320114","cityCode":"3201","provinceCode":"32"},{"code":"320114001009","name":"能仁里居委会","streetCode":"320114001","areaCode":"320114","cityCode":"3201","provinceCode":"32"},{"code":"320114001010","name":"凤凰山居委会","streetCode":"320114001","areaCode":"320114","cityCode":"3201","provinceCode":"32"},{"code":"320114001011","name":"吉山居委会","streetCode":"320114001","areaCode":"320114","cityCode":"3201","provinceCode":"32"},{"code":"320114001012","name":"云台山居委会","streetCode":"320114001","areaCode":"320114","cityCode":"3201","provinceCode":"32"},{"code":"320114001013","name":"青龙山居委会","streetCode":"320114001","areaCode":"320114","cityCode":"3201","provinceCode":"32"},{"code":"320114001014","name":"共青团路居委会","streetCode":"320114001","areaCode":"320114","cityCode":"3201","provinceCode":"32"},{"code":"320114001015","name":"农花社区居委会","streetCode":"320114001","areaCode":"320114","cityCode":"3201","provinceCode":"32"},{"code":"320114001016","name":"南京南站社区居委会","streetCode":"320114001","areaCode":"320114","cityCode":"3201","provinceCode":"32"},{"code":"320114001201","name":"花神庙村村委会","streetCode":"320114001","areaCode":"320114","cityCode":"3201","provinceCode":"32"},{"code":"320114001202","name":"丁墙村村委会","streetCode":"320114001","areaCode":"320114","cityCode":"3201","provinceCode":"32"}]},{
            "streetName": "赛虹桥街道","villages": [{"code":"320114002001","name":"赛虹桥社区居委会","streetCode":"320114002","areaCode":"320114","cityCode":"3201","provinceCode":"32"},{"code":"320114002002","name":"小行社区居委会","streetCode":"320114002","areaCode":"320114","cityCode":"3201","provinceCode":"32"},{"code":"320114002003","name":"安德门社区居委会","streetCode":"320114002","areaCode":"320114","cityCode":"3201","provinceCode":"32"},{"code":"320114002004","name":"长虹路社区居委会","streetCode":"320114002","areaCode":"320114","cityCode":"3201","provinceCode":"32"},{"code":"320114002005","name":"玻纤院社区居委会","streetCode":"320114002","areaCode":"320114","cityCode":"3201","provinceCode":"32"},{"code":"320114002006","name":"菊花里社区居委会","streetCode":"320114002","areaCode":"320114","cityCode":"3201","provinceCode":"32"},{"code":"320114002007","name":"龙福社区居委会","streetCode":"320114002","areaCode":"320114","cityCode":"3201","provinceCode":"32"},{"code":"320114002008","name":"邓府山居委会","streetCode":"320114002","areaCode":"320114","cityCode":"3201","provinceCode":"32"}]},{
            "streetName": "西善桥街道","villages": [{"code":"320114004001","name":"西善桥社区居委会","streetCode":"320114004","areaCode":"320114","cityCode":"3201","provinceCode":"32"},{"code":"320114004003","name":"油坊社区居委会","streetCode":"320114004","areaCode":"320114","cityCode":"3201","provinceCode":"32"},{"code":"320114004004","name":"古遗井社区居委会","streetCode":"320114004","areaCode":"320114","cityCode":"3201","provinceCode":"32"},{"code":"320114004005","name":"福润社区居委会","streetCode":"320114004","areaCode":"320114","cityCode":"3201","provinceCode":"32"},{"code":"320114004006","name":"西善花苑社区居委会","streetCode":"320114004","areaCode":"320114","cityCode":"3201","provinceCode":"32"},{"code":"320114004007","name":"齐修社区居委会","streetCode":"320114004","areaCode":"320114","cityCode":"3201","provinceCode":"32"},{"code":"320114004008","name":"嘉业社区居委会","streetCode":"320114004","areaCode":"320114","cityCode":"3201","provinceCode":"32"},{"code":"320114004009","name":"明义社区居委会","streetCode":"320114004","areaCode":"320114","cityCode":"3201","provinceCode":"32"},{"code":"320114004010","name":"平治社区居委会","streetCode":"320114004","areaCode":"320114","cityCode":"3201","provinceCode":"32"},{"code":"320114004011","name":"永盛社区居委会","streetCode":"320114004","areaCode":"320114","cityCode":"3201","provinceCode":"32"},{"code":"320114004200","name":"西善桥村村委会","streetCode":"320114004","areaCode":"320114","cityCode":"3201","provinceCode":"32"},{"code":"320114004201","name":"油坊村村委会","streetCode":"320114004","areaCode":"320114","cityCode":"3201","provinceCode":"32"},{"code":"320114004202","name":"古遗井村村委会","streetCode":"320114004","areaCode":"320114","cityCode":"3201","provinceCode":"32"}]},{
            "streetName": "板桥街道","villages": [{"code":"320114005001","name":"板桥社区居委会","streetCode":"320114005","areaCode":"320114","cityCode":"3201","provinceCode":"32"},{"code":"320114005002","name":"绿洲社区居委会","streetCode":"320114005","areaCode":"320114","cityCode":"3201","provinceCode":"32"},{"code":"320114005003","name":"殷富社区居委会","streetCode":"320114005","areaCode":"320114","cityCode":"3201","provinceCode":"32"},{"code":"320114005004","name":"孙家社区居委会","streetCode":"320114005","areaCode":"320114","cityCode":"3201","provinceCode":"32"},{"code":"320114005005","name":"永安社区居委会","streetCode":"320114005","areaCode":"320114","cityCode":"3201","provinceCode":"32"},{"code":"320114005006","name":"三山社区居委会","streetCode":"320114005","areaCode":"320114","cityCode":"3201","provinceCode":"32"},{"code":"320114005007","name":"新建社区居委会","streetCode":"320114005","areaCode":"320114","cityCode":"3201","provinceCode":"32"}]},{
            "streetName": "铁心桥街道","villages": [{"code":"320114006002","name":"景明佳园社区居委会","streetCode":"320114006","areaCode":"320114","cityCode":"3201","provinceCode":"32"},{"code":"320114006003","name":"春江社区居委会","streetCode":"320114006","areaCode":"320114","cityCode":"3201","provinceCode":"32"},{"code":"320114006004","name":"新河社区居委会","streetCode":"320114006","areaCode":"320114","cityCode":"3201","provinceCode":"32"},{"code":"320114006009","name":"铁心社区居委会","streetCode":"320114006","areaCode":"320114","cityCode":"3201","provinceCode":"32"},{"code":"320114006010","name":"定坊社区居委会","streetCode":"320114006","areaCode":"320114","cityCode":"3201","provinceCode":"32"},{"code":"320114006011","name":"尹西社区居委会","streetCode":"320114006","areaCode":"320114","cityCode":"3201","provinceCode":"32"},{"code":"320114006012","name":"马家店社区居委会","streetCode":"320114006","areaCode":"320114","cityCode":"3201","provinceCode":"32"},{"code":"320114006013","name":"高家库村社区居委会","streetCode":"320114006","areaCode":"320114","cityCode":"3201","provinceCode":"32"},{"code":"320114006014","name":"翠岭银河社区居委会","streetCode":"320114006","areaCode":"320114","cityCode":"3201","provinceCode":"32"},{"code":"320114006200","name":"尹西村村委会","streetCode":"320114006","areaCode":"320114","cityCode":"3201","provinceCode":"32"},{"code":"320114006201","name":"铁心村村委会","streetCode":"320114006","areaCode":"320114","cityCode":"3201","provinceCode":"32"},{"code":"320114006202","name":"马家店村村委会","streetCode":"320114006","areaCode":"320114","cityCode":"3201","provinceCode":"32"},{"code":"320114006203","name":"高家库村村委会","streetCode":"320114006","areaCode":"320114","cityCode":"3201","provinceCode":"32"},{"code":"320114006204","name":"定坊村村委会","streetCode":"320114006","areaCode":"320114","cityCode":"3201","provinceCode":"32"}]},{
            "streetName": "梅山街道","villages": [{"code":"320114007001","name":"中兴路居委会","streetCode":"320114007","areaCode":"320114","cityCode":"3201","provinceCode":"32"},{"code":"320114007004","name":"上怡新村居委会","streetCode":"320114007","areaCode":"320114","cityCode":"3201","provinceCode":"32"},{"code":"320114007007","name":"梅清苑居委会","streetCode":"320114007","areaCode":"320114","cityCode":"3201","provinceCode":"32"},{"code":"320114007008","name":"梅岭居委会","streetCode":"320114007","areaCode":"320114","cityCode":"3201","provinceCode":"32"},{"code":"320114007009","name":"梅欣居委会","streetCode":"320114007","areaCode":"320114","cityCode":"3201","provinceCode":"32"}]},{
            "streetName": "雨花经济开发区","villages": [{"code":"320114400001","name":"金叶社区居委会","streetCode":"320114400","areaCode":"320114","cityCode":"3201","provinceCode":"32"},{"code":"320114400002","name":"天保社区居委会","streetCode":"320114400","areaCode":"320114","cityCode":"3201","provinceCode":"32"},{"code":"320114400003","name":"近华社区居委会","streetCode":"320114400","areaCode":"320114","cityCode":"3201","provinceCode":"32"},{"code":"320114400004","name":"天后社区居委会","streetCode":"320114400","areaCode":"320114","cityCode":"3201","provinceCode":"32"},{"code":"320114400005","name":"西寇社区居委会","streetCode":"320114400","areaCode":"320114","cityCode":"3201","provinceCode":"32"},{"code":"320114400006","name":"锦华新城社区居委会","streetCode":"320114400","areaCode":"320114","cityCode":"3201","provinceCode":"32"},{"code":"320114400203","name":"天后村村委会","streetCode":"320114400","areaCode":"320114","cityCode":"3201","provinceCode":"32"},{"code":"320114400205","name":"西寇村村委会","streetCode":"320114400","areaCode":"320114","cityCode":"3201","provinceCode":"32"}]},{
            "streetName": "板桥新城","villages": [{"code":"320114401001","name":"大方社区居委会","streetCode":"320114401","areaCode":"320114","cityCode":"3201","provinceCode":"32"},{"code":"320114401002","name":"古雄社区居委会","streetCode":"320114401","areaCode":"320114","cityCode":"3201","provinceCode":"32"},{"code":"320114401003","name":"柿子树社区居委会","streetCode":"320114401","areaCode":"320114","cityCode":"3201","provinceCode":"32"},{"code":"320114401004","name":"新林社区居委会","streetCode":"320114401","areaCode":"320114","cityCode":"3201","provinceCode":"32"},{"code":"320114401200","name":"大方村村委会","streetCode":"320114401","areaCode":"320114","cityCode":"3201","provinceCode":"32"},{"code":"320114401201","name":"古雄村村委会","streetCode":"320114401","areaCode":"320114","cityCode":"3201","provinceCode":"32"},{"code":"320114401202","name":"柿子树村村委会","streetCode":"320114401","areaCode":"320114","cityCode":"3201","provinceCode":"32"}]},{
            "streetName": "中国（南京）软件谷","villages": [{"code":"320114402001","name":"中国（南京）软件谷一号园区社区","streetCode":"320114402","areaCode":"320114","cityCode":"3201","provinceCode":"32"},{"code":"320114402002","name":"中国（南京）软件谷二号园区社区","streetCode":"320114402","areaCode":"320114","cityCode":"3201","provinceCode":"32"},{"code":"320114402003","name":"中国（南京）软件谷三号园区社区","streetCode":"320114402","areaCode":"320114","cityCode":"3201","provinceCode":"32"},{"code":"320114402004","name":"中国（南京）软件谷四号园区社区","streetCode":"320114402","areaCode":"320114","cityCode":"3201","provinceCode":"32"},{"code":"320114402005","name":"中国（南京）软件谷五号园区社区","streetCode":"320114402","areaCode":"320114","cityCode":"3201","provinceCode":"32"},{"code":"320114402006","name":"中国（南京）软件谷六号园区社区","streetCode":"320114402","areaCode":"320114","cityCode":"3201","provinceCode":"32"},{"code":"320114402007","name":"中国（南京）软件谷七号园区社区","streetCode":"320114402","areaCode":"320114","cityCode":"3201","provinceCode":"32"},{"code":"320114402008","name":"中国（南京）软件谷八号园区社区","streetCode":"320114402","areaCode":"320114","cityCode":"3201","provinceCode":"32"},{"code":"320114402009","name":"中国（南京）软件谷九号园区社区","streetCode":"320114402","areaCode":"320114","cityCode":"3201","provinceCode":"32"},{"code":"320114402010","name":"中国（南京）软件谷十号园区社区","streetCode":"320114402","areaCode":"320114","cityCode":"3201","provinceCode":"32"},{"code":"320114402011","name":"中国（南京）软件谷十一号园区社区","streetCode":"320114402","areaCode":"320114","cityCode":"3201","provinceCode":"32"},{"code":"320114402012","name":"中国（南京）软件谷十二号园区社区","streetCode":"320114402","areaCode":"320114","cityCode":"3201","provinceCode":"32"},{"code":"320114402013","name":"中国（南京）软件谷十三号园区社区","streetCode":"320114402","areaCode":"320114","cityCode":"3201","provinceCode":"32"}]}]

          },
          {
            "areaName": "江宁区","streets": [{
            "streetName": "东山街道","villages": [{"code":"320115001001","name":"中前社区居委会","streetCode":"320115001","areaCode":"320115","cityCode":"3201","provinceCode":"32"},{"code":"320115001002","name":"东山社区居委会","streetCode":"320115001","areaCode":"320115","cityCode":"3201","provinceCode":"32"},{"code":"320115001003","name":"晓里社区居委会","streetCode":"320115001","areaCode":"320115","cityCode":"3201","provinceCode":"32"},{"code":"320115001004","name":"骆村社区居委会","streetCode":"320115001","areaCode":"320115","cityCode":"3201","provinceCode":"32"},{"code":"320115001005","name":"章村社区居委会","streetCode":"320115001","areaCode":"320115","cityCode":"3201","provinceCode":"32"},{"code":"320115001006","name":"外港社区居委会","streetCode":"320115001","areaCode":"320115","cityCode":"3201","provinceCode":"32"},{"code":"320115001007","name":"岔路社区居委会","streetCode":"320115001","areaCode":"320115","cityCode":"3201","provinceCode":"32"},{"code":"320115001008","name":"龙西社区居委会","streetCode":"320115001","areaCode":"320115","cityCode":"3201","provinceCode":"32"},{"code":"320115001009","name":"邵圣社区居委会","streetCode":"320115001","areaCode":"320115","cityCode":"3201","provinceCode":"32"},{"code":"320115001010","name":"上坊社区居委会","streetCode":"320115001","areaCode":"320115","cityCode":"3201","provinceCode":"32"},{"code":"320115001011","name":"天云社区居委会","streetCode":"320115001","areaCode":"320115","cityCode":"3201","provinceCode":"32"},{"code":"320115001012","name":"泥塘社区居委会","streetCode":"320115001","areaCode":"320115","cityCode":"3201","provinceCode":"32"},{"code":"320115001013","name":"佘村社区居委会","streetCode":"320115001","areaCode":"320115","cityCode":"3201","provinceCode":"32"},{"code":"320115001014","name":"高桥社区居委会","streetCode":"320115001","areaCode":"320115","cityCode":"3201","provinceCode":"32"},{"code":"320115001015","name":"永安社区居委会","streetCode":"320115001","areaCode":"320115","cityCode":"3201","provinceCode":"32"},{"code":"320115001016","name":"大里社区居委会","streetCode":"320115001","areaCode":"320115","cityCode":"3201","provinceCode":"32"}]},{
            "streetName": "秣陵街道","villages": [{"code":"320115002001","name":"东旺社区居委会","streetCode":"320115002","areaCode":"320115","cityCode":"3201","provinceCode":"32"},{"code":"320115002002","name":"殷巷社区居委会","streetCode":"320115002","areaCode":"320115","cityCode":"3201","provinceCode":"32"},{"code":"320115002004","name":"湖滨社区居委会","streetCode":"320115002","areaCode":"320115","cityCode":"3201","provinceCode":"32"},{"code":"320115002005","name":"秦淮社区居委会","streetCode":"320115002","areaCode":"320115","cityCode":"3201","provinceCode":"32"},{"code":"320115002006","name":"太平社区居委会","streetCode":"320115002","areaCode":"320115","cityCode":"3201","provinceCode":"32"},{"code":"320115002008","name":"胜太社区居委会","streetCode":"320115002","areaCode":"320115","cityCode":"3201","provinceCode":"32"},{"code":"320115002009","name":"长山社区居委会","streetCode":"320115002","areaCode":"320115","cityCode":"3201","provinceCode":"32"},{"code":"320115002010","name":"牛首社区居委会","streetCode":"320115002","areaCode":"320115","cityCode":"3201","provinceCode":"32"},{"code":"320115002012","name":"下墟社区居委会","streetCode":"320115002","areaCode":"320115","cityCode":"3201","provinceCode":"32"},{"code":"320115002014","name":"东南社区居委会","streetCode":"320115002","areaCode":"320115","cityCode":"3201","provinceCode":"32"},{"code":"320115002017","name":"青源社区居委会","streetCode":"320115002","areaCode":"320115","cityCode":"3201","provinceCode":"32"},{"code":"320115002035","name":"双金社区居委会","streetCode":"320115002","areaCode":"320115","cityCode":"3201","provinceCode":"32"},{"code":"320115002036","name":"西旺社区居委会","streetCode":"320115002","areaCode":"320115","cityCode":"3201","provinceCode":"32"},{"code":"320115002037","name":"家园社区居委会","streetCode":"320115002","areaCode":"320115","cityCode":"3201","provinceCode":"32"},{"code":"320115002038","name":"童前社区居委会","streetCode":"320115002","areaCode":"320115","cityCode":"3201","provinceCode":"32"},{"code":"320115002039","name":"东善桥社区居委会","streetCode":"320115002","areaCode":"320115","cityCode":"3201","provinceCode":"32"},{"code":"320115002040","name":"祖堂社区居委会","streetCode":"320115002","areaCode":"320115","cityCode":"3201","provinceCode":"32"},{"code":"320115002041","name":"吉山社区居委会","streetCode":"320115002","areaCode":"320115","cityCode":"3201","provinceCode":"32"},{"code":"320115002042","name":"霞辉庙社区居委","streetCode":"320115002","areaCode":"320115","cityCode":"3201","provinceCode":"32"},{"code":"320115002043","name":"元山社区居委会","streetCode":"320115002","areaCode":"320115","cityCode":"3201","provinceCode":"32"},{"code":"320115002044","name":"胜家桥社区居委会","streetCode":"320115002","areaCode":"320115","cityCode":"3201","provinceCode":"32"},{"code":"320115002200","name":"周里村委会","streetCode":"320115002","areaCode":"320115","cityCode":"3201","provinceCode":"32"},{"code":"320115002201","name":"建东村委会","streetCode":"320115002","areaCode":"320115","cityCode":"3201","provinceCode":"32"},{"code":"320115002202","name":"火炬村委会","streetCode":"320115002","areaCode":"320115","cityCode":"3201","provinceCode":"32"},{"code":"320115002204","name":"凤凰村委会","streetCode":"320115002","areaCode":"320115","cityCode":"3201","provinceCode":"32"}]},{
            "streetName": "汤山街道","villages": [{"code":"320115003001","name":"汤山社区居委会","streetCode":"320115003","areaCode":"320115","cityCode":"3201","provinceCode":"32"},{"code":"320115003002","name":"青林社区居委会","streetCode":"320115003","areaCode":"320115","cityCode":"3201","provinceCode":"32"},{"code":"320115003003","name":"作厂社区居委会","streetCode":"320115003","areaCode":"320115","cityCode":"3201","provinceCode":"32"},{"code":"320115003004","name":"古泉社区居委会","streetCode":"320115003","areaCode":"320115","cityCode":"3201","provinceCode":"32"},{"code":"320115003009","name":"孟墓社区居委会","streetCode":"320115003","areaCode":"320115","cityCode":"3201","provinceCode":"32"},{"code":"320115003010","name":"鹤龄社区居委会","streetCode":"320115003","areaCode":"320115","cityCode":"3201","provinceCode":"32"},{"code":"320115003011","name":"高庄社区居委会","streetCode":"320115003","areaCode":"320115","cityCode":"3201","provinceCode":"32"},{"code":"320115003012","name":"上峰社区居委会","streetCode":"320115003","areaCode":"320115","cityCode":"3201","provinceCode":"32"},{"code":"320115003201","name":"湖山村委会","streetCode":"320115003","areaCode":"320115","cityCode":"3201","provinceCode":"32"},{"code":"320115003202","name":"龙尚村委会","streetCode":"320115003","areaCode":"320115","cityCode":"3201","provinceCode":"32"},{"code":"320115003204","name":"孟塘村委会","streetCode":"320115003","areaCode":"320115","cityCode":"3201","provinceCode":"32"},{"code":"320115003205","name":"路西村委会","streetCode":"320115003","areaCode":"320115","cityCode":"3201","provinceCode":"32"},{"code":"320115003206","name":"建设村委会","streetCode":"320115003","areaCode":"320115","cityCode":"3201","provinceCode":"32"},{"code":"320115003209","name":"宁西村委会","streetCode":"320115003","areaCode":"320115","cityCode":"3201","provinceCode":"32"},{"code":"320115003210","name":"阜东村委会","streetCode":"320115003","areaCode":"320115","cityCode":"3201","provinceCode":"32"},{"code":"320115003211","name":"阜庄村委会","streetCode":"320115003","areaCode":"320115","cityCode":"3201","provinceCode":"32"}]},{
            "streetName": "淳化街道","villages": [{"code":"320115004001","name":"淳化社区居委会","streetCode":"320115004","areaCode":"320115","cityCode":"3201","provinceCode":"32"},{"code":"320115004002","name":"双岗社区居委会","streetCode":"320115004","areaCode":"320115","cityCode":"3201","provinceCode":"32"},{"code":"320115004003","name":"青山社区居委会","streetCode":"320115004","areaCode":"320115","cityCode":"3201","provinceCode":"32"},{"code":"320115004004","name":"青龙社区居委会","streetCode":"320115004","areaCode":"320115","cityCode":"3201","provinceCode":"32"},{"code":"320115004005","name":"索墅社区居委会","streetCode":"320115004","areaCode":"320115","cityCode":"3201","provinceCode":"32"},{"code":"320115004006","name":"吴墅社区居委会","streetCode":"320115004","areaCode":"320115","cityCode":"3201","provinceCode":"32"},{"code":"320115004007","name":"田园社区居委会","streetCode":"320115004","areaCode":"320115","cityCode":"3201","provinceCode":"32"},{"code":"320115004008","name":"土桥社区居委会","streetCode":"320115004","areaCode":"320115","cityCode":"3201","provinceCode":"32"},{"code":"320115004009","name":"新兴社区居委会","streetCode":"320115004","areaCode":"320115","cityCode":"3201","provinceCode":"32"},{"code":"320115004010","name":"科苑社区居委会","streetCode":"320115004","areaCode":"320115","cityCode":"3201","provinceCode":"32"},{"code":"320115004011","name":"方山社区居委会","streetCode":"320115004","areaCode":"320115","cityCode":"3201","provinceCode":"32"},{"code":"320115004012","name":"横岭社区居委会","streetCode":"320115004","areaCode":"320115","cityCode":"3201","provinceCode":"32"},{"code":"320115004013","name":"杨村社区居委会","streetCode":"320115004","areaCode":"320115","cityCode":"3201","provinceCode":"32"},{"code":"320115004014","name":"成山社区居委会","streetCode":"320115004","areaCode":"320115","cityCode":"3201","provinceCode":"32"},{"code":"320115004015","name":"桥头社区居委会","streetCode":"320115004","areaCode":"320115","cityCode":"3201","provinceCode":"32"},{"code":"320115004016","name":"陵里社区居委会","streetCode":"320115004","areaCode":"320115","cityCode":"3201","provinceCode":"32"},{"code":"320115004017","name":"王墅社区居委会","streetCode":"320115004","areaCode":"320115","cityCode":"3201","provinceCode":"32"},{"code":"320115004018","name":"解溪社区居委会","streetCode":"320115004","areaCode":"320115","cityCode":"3201","provinceCode":"32"},{"code":"320115004019","name":"永宁社区居委会","streetCode":"320115004","areaCode":"320115","cityCode":"3201","provinceCode":"32"},{"code":"320115004020","name":"新华社区居委会","streetCode":"320115004","areaCode":"320115","cityCode":"3201","provinceCode":"32"},{"code":"320115004021","name":"大学城社区居委会","streetCode":"320115004","areaCode":"320115","cityCode":"3201","provinceCode":"32"},{"code":"320115004200","name":"茶岗村委会","streetCode":"320115004","areaCode":"320115","cityCode":"3201","provinceCode":"32"},{"code":"320115004201","name":"周郎村委会","streetCode":"320115004","areaCode":"320115","cityCode":"3201","provinceCode":"32"},{"code":"320115004202","name":"滨淮村委会","streetCode":"320115004","areaCode":"320115","cityCode":"3201","provinceCode":"32"},{"code":"320115004203","name":"民主村委会","streetCode":"320115004","areaCode":"320115","cityCode":"3201","provinceCode":"32"},{"code":"320115004204","name":"周子村委会","streetCode":"320115004","areaCode":"320115","cityCode":"3201","provinceCode":"32"},{"code":"320115004205","name":"西埠村委会","streetCode":"320115004","areaCode":"320115","cityCode":"3201","provinceCode":"32"},{"code":"320115004206","name":"西城村委会","streetCode":"320115004","areaCode":"320115","cityCode":"3201","provinceCode":"32"},{"code":"320115004207","name":"柏树村委会","streetCode":"320115004","areaCode":"320115","cityCode":"3201","provinceCode":"32"},{"code":"320115004208","name":"新林村委会","streetCode":"320115004","areaCode":"320115","cityCode":"3201","provinceCode":"32"}]},{
            "streetName": "禄口街道","villages": [{"code":"320115005001","name":"永兴社区居委会","streetCode":"320115005","areaCode":"320115","cityCode":"3201","provinceCode":"32"},{"code":"320115005002","name":"白云路社区居委会","streetCode":"320115005","areaCode":"320115","cityCode":"3201","provinceCode":"32"},{"code":"320115005003","name":"茅亭社区居委会","streetCode":"320115005","areaCode":"320115","cityCode":"3201","provinceCode":"32"},{"code":"320115005004","name":"机场社区居委会","streetCode":"320115005","areaCode":"320115","cityCode":"3201","provinceCode":"32"},{"code":"320115005005","name":"铜山社区居委会","streetCode":"320115005","areaCode":"320115","cityCode":"3201","provinceCode":"32"},{"code":"320115005006","name":"陆纲社区居委会","streetCode":"320115005","areaCode":"320115","cityCode":"3201","provinceCode":"32"},{"code":"320115005007","name":"山塘社区居委会","streetCode":"320115005","areaCode":"320115","cityCode":"3201","provinceCode":"32"},{"code":"320115005008","name":"群力社区居委会","streetCode":"320115005","areaCode":"320115","cityCode":"3201","provinceCode":"32"},{"code":"320115005009","name":"新生社区居委会","streetCode":"320115005","areaCode":"320115","cityCode":"3201","provinceCode":"32"},{"code":"320115005010","name":"高伏社区居委会","streetCode":"320115005","areaCode":"320115","cityCode":"3201","provinceCode":"32"},{"code":"320115005011","name":"谢村社区居委会","streetCode":"320115005","areaCode":"320115","cityCode":"3201","provinceCode":"32"},{"code":"320115005012","name":"彭福社区居委会","streetCode":"320115005","areaCode":"320115","cityCode":"3201","provinceCode":"32"},{"code":"320115005013","name":"上穆社区居委会","streetCode":"320115005","areaCode":"320115","cityCode":"3201","provinceCode":"32"},{"code":"320115005014","name":"钟村社区居委会","streetCode":"320115005","areaCode":"320115","cityCode":"3201","provinceCode":"32"},{"code":"320115005015","name":"陶东社区居委会","streetCode":"320115005","areaCode":"320115","cityCode":"3201","provinceCode":"32"},{"code":"320115005200","name":"杨树湾村委会","streetCode":"320115005","areaCode":"320115","cityCode":"3201","provinceCode":"32"},{"code":"320115005201","name":"成功村委会","streetCode":"320115005","areaCode":"320115","cityCode":"3201","provinceCode":"32"},{"code":"320115005202","name":"张桥村委会","streetCode":"320115005","areaCode":"320115","cityCode":"3201","provinceCode":"32"},{"code":"320115005203","name":"马铺村委会","streetCode":"320115005","areaCode":"320115","cityCode":"3201","provinceCode":"32"},{"code":"320115005204","name":"秦村村委会","streetCode":"320115005","areaCode":"320115","cityCode":"3201","provinceCode":"32"},{"code":"320115005205","name":"黄桥村委会","streetCode":"320115005","areaCode":"320115","cityCode":"3201","provinceCode":"32"},{"code":"320115005206","name":"桑园村委会","streetCode":"320115005","areaCode":"320115","cityCode":"3201","provinceCode":"32"},{"code":"320115005207","name":"陈巷村委会","streetCode":"320115005","areaCode":"320115","cityCode":"3201","provinceCode":"32"},{"code":"320115005208","name":"徒盖村委会","streetCode":"320115005","areaCode":"320115","cityCode":"3201","provinceCode":"32"},{"code":"320115005209","name":"尚洪村委会","streetCode":"320115005","areaCode":"320115","cityCode":"3201","provinceCode":"32"},{"code":"320115005210","name":"石埝村委会","streetCode":"320115005","areaCode":"320115","cityCode":"3201","provinceCode":"32"},{"code":"320115005211","name":"小彭村委会","streetCode":"320115005","areaCode":"320115","cityCode":"3201","provinceCode":"32"},{"code":"320115005212","name":"曹村村委会","streetCode":"320115005","areaCode":"320115","cityCode":"3201","provinceCode":"32"},{"code":"320115005213","name":"埂方村委会","streetCode":"320115005","areaCode":"320115","cityCode":"3201","provinceCode":"32"},{"code":"320115005214","name":"溧塘村委会","streetCode":"320115005","areaCode":"320115","cityCode":"3201","provinceCode":"32"}]},{
            "streetName": "江宁街道","villages": [{"code":"320115006001","name":"江宁社区居委会","streetCode":"320115006","areaCode":"320115","cityCode":"3201","provinceCode":"32"},{"code":"320115006003","name":"盛江社区居委会","streetCode":"320115006","areaCode":"320115","cityCode":"3201","provinceCode":"32"},{"code":"320115006004","name":"司家社区居委会","streetCode":"320115006","areaCode":"320115","cityCode":"3201","provinceCode":"32"},{"code":"320115006006","name":"陆郎社区居委会","streetCode":"320115006","areaCode":"320115","cityCode":"3201","provinceCode":"32"},{"code":"320115006007","name":"朱门社区居委会","streetCode":"320115006","areaCode":"320115","cityCode":"3201","provinceCode":"32"},{"code":"320115006008","name":"河西社区居委会","streetCode":"320115006","areaCode":"320115","cityCode":"3201","provinceCode":"32"},{"code":"320115006009","name":"叶村社区居委会","streetCode":"320115006","areaCode":"320115","cityCode":"3201","provinceCode":"32"},{"code":"320115006010","name":"新铜社区居委会","streetCode":"320115006","areaCode":"320115","cityCode":"3201","provinceCode":"32"},{"code":"320115006011","name":"南山湖社区居委会","streetCode":"320115006","areaCode":"320115","cityCode":"3201","provinceCode":"32"},{"code":"320115006012","name":"牧龙社区居委会","streetCode":"320115006","areaCode":"320115","cityCode":"3201","provinceCode":"32"},{"code":"320115006014","name":"荷花社区居委会","streetCode":"320115006","areaCode":"320115","cityCode":"3201","provinceCode":"32"},{"code":"320115006015","name":"星辉社区居委会","streetCode":"320115006","areaCode":"320115","cityCode":"3201","provinceCode":"32"},{"code":"320115006200","name":"新洲村委会","streetCode":"320115006","areaCode":"320115","cityCode":"3201","provinceCode":"32"},{"code":"320115006201","name":"上湖村委会","streetCode":"320115006","areaCode":"320115","cityCode":"3201","provinceCode":"32"},{"code":"320115006202","name":"清修村委会","streetCode":"320115006","areaCode":"320115","cityCode":"3201","provinceCode":"32"},{"code":"320115006203","name":"西宁村委会","streetCode":"320115006","areaCode":"320115","cityCode":"3201","provinceCode":"32"},{"code":"320115006204","name":"大庙村委会","streetCode":"320115006","areaCode":"320115","cityCode":"3201","provinceCode":"32"},{"code":"320115006205","name":"牌坊村委会","streetCode":"320115006","areaCode":"320115","cityCode":"3201","provinceCode":"32"},{"code":"320115006206","name":"花塘村委会","streetCode":"320115006","areaCode":"320115","cityCode":"3201","provinceCode":"32"},{"code":"320115006207","name":"庙庄村委会","streetCode":"320115006","areaCode":"320115","cityCode":"3201","provinceCode":"32"},{"code":"320115006208","name":"天然村委会","streetCode":"320115006","areaCode":"320115","cityCode":"3201","provinceCode":"32"},{"code":"320115006209","name":"洪幕村委会","streetCode":"320115006","areaCode":"320115","cityCode":"3201","provinceCode":"32"}]},{
            "streetName": "谷里街道","villages": [{"code":"320115007001","name":"谷里社区居委会","streetCode":"320115007","areaCode":"320115","cityCode":"3201","provinceCode":"32"},{"code":"320115007002","name":"张溪社区居委会","streetCode":"320115007","areaCode":"320115","cityCode":"3201","provinceCode":"32"},{"code":"320115007003","name":"公塘社区居委会","streetCode":"320115007","areaCode":"320115","cityCode":"3201","provinceCode":"32"},{"code":"320115007004","name":"向阳社区居委会","streetCode":"320115007","areaCode":"320115","cityCode":"3201","provinceCode":"32"},{"code":"320115007005","name":"箭塘社区居委会","streetCode":"320115007","areaCode":"320115","cityCode":"3201","provinceCode":"32"},{"code":"320115007006","name":"周村社区居委会","streetCode":"320115007","areaCode":"320115","cityCode":"3201","provinceCode":"32"},{"code":"320115007200","name":"柏树村委会","streetCode":"320115007","areaCode":"320115","cityCode":"3201","provinceCode":"32"},{"code":"320115007201","name":"双塘村委会","streetCode":"320115007","areaCode":"320115","cityCode":"3201","provinceCode":"32"},{"code":"320115007202","name":"亲见村委会","streetCode":"320115007","areaCode":"320115","cityCode":"3201","provinceCode":"32"},{"code":"320115007203","name":"荆刘村委会","streetCode":"320115007","areaCode":"320115","cityCode":"3201","provinceCode":"32"},{"code":"320115007204","name":"石坝村委会","streetCode":"320115007","areaCode":"320115","cityCode":"3201","provinceCode":"32"}]},{
            "streetName": "湖熟街道","villages": [{"code":"320115008001","name":"河南社区居委会","streetCode":"320115008","areaCode":"320115","cityCode":"3201","provinceCode":"32"},{"code":"320115008002","name":"湖熟社区居委会","streetCode":"320115008","areaCode":"320115","cityCode":"3201","provinceCode":"32"},{"code":"320115008003","name":"和进社区居委会","streetCode":"320115008","areaCode":"320115","cityCode":"3201","provinceCode":"32"},{"code":"320115008004","name":"龙都社区居委会","streetCode":"320115008","areaCode":"320115","cityCode":"3201","provinceCode":"32"},{"code":"320115008005","name":"周岗社区居委会","streetCode":"320115008","areaCode":"320115","cityCode":"3201","provinceCode":"32"},{"code":"320115008006","name":"金桥社区居委会","streetCode":"320115008","areaCode":"320115","cityCode":"3201","provinceCode":"32"},{"code":"320115008007","name":"新农社区居委会","streetCode":"320115008","areaCode":"320115","cityCode":"3201","provinceCode":"32"},{"code":"320115008008","name":"杨柳湖社区居委会","streetCode":"320115008","areaCode":"320115","cityCode":"3201","provinceCode":"32"},{"code":"320115008009","name":"双新社区居委会","streetCode":"320115008","areaCode":"320115","cityCode":"3201","provinceCode":"32"},{"code":"320115008010","name":"尚桥社区居委会","streetCode":"320115008","areaCode":"320115","cityCode":"3201","provinceCode":"32"},{"code":"320115008200","name":"晶明村委会","streetCode":"320115008","areaCode":"320115","cityCode":"3201","provinceCode":"32"},{"code":"320115008201","name":"三界村委会","streetCode":"320115008","areaCode":"320115","cityCode":"3201","provinceCode":"32"},{"code":"320115008202","name":"丹桂村委会","streetCode":"320115008","areaCode":"320115","cityCode":"3201","provinceCode":"32"},{"code":"320115008203","name":"新跃村委会","streetCode":"320115008","areaCode":"320115","cityCode":"3201","provinceCode":"32"},{"code":"320115008204","name":"耀华村委会","streetCode":"320115008","areaCode":"320115","cityCode":"3201","provinceCode":"32"},{"code":"320115008205","name":"河北村委会","streetCode":"320115008","areaCode":"320115","cityCode":"3201","provinceCode":"32"},{"code":"320115008206","name":"东阳村委会","streetCode":"320115008","areaCode":"320115","cityCode":"3201","provinceCode":"32"},{"code":"320115008207","name":"万安村委会","streetCode":"320115008","areaCode":"320115","cityCode":"3201","provinceCode":"32"},{"code":"320115008208","name":"和平村委会","streetCode":"320115008","areaCode":"320115","cityCode":"3201","provinceCode":"32"},{"code":"320115008209","name":"钱家村委会","streetCode":"320115008","areaCode":"320115","cityCode":"3201","provinceCode":"32"},{"code":"320115008210","name":"徐慕村委会","streetCode":"320115008","areaCode":"320115","cityCode":"3201","provinceCode":"32"},{"code":"320115008211","name":"绿杨村委会","streetCode":"320115008","areaCode":"320115","cityCode":"3201","provinceCode":"32"}]},{
            "streetName": "横溪街道","villages": [{"code":"320115009001","name":"横溪社区居委会","streetCode":"320115009","areaCode":"320115","cityCode":"3201","provinceCode":"32"},{"code":"320115009002","name":"新杨社区居委会","streetCode":"320115009","areaCode":"320115","cityCode":"3201","provinceCode":"32"},{"code":"320115009003","name":"丹阳社区居委会","streetCode":"320115009","areaCode":"320115","cityCode":"3201","provinceCode":"32"},{"code":"320115009004","name":"西岗社区居委会","streetCode":"320115009","areaCode":"320115","cityCode":"3201","provinceCode":"32"},{"code":"320115009005","name":"陶吴社区居委会","streetCode":"320115009","areaCode":"320115","cityCode":"3201","provinceCode":"32"},{"code":"320115009006","name":"新杭社区居委会","streetCode":"320115009","areaCode":"320115","cityCode":"3201","provinceCode":"32"},{"code":"320115009007","name":"甘西社区居委会","streetCode":"320115009","areaCode":"320115","cityCode":"3201","provinceCode":"32"},{"code":"320115009008","name":"西泉社区居委会","streetCode":"320115009","areaCode":"320115","cityCode":"3201","provinceCode":"32"},{"code":"320115009009","name":"西阳社区居委会","streetCode":"320115009","areaCode":"320115","cityCode":"3201","provinceCode":"32"},{"code":"320115009010","name":"甘泉湖社区居委会","streetCode":"320115009","areaCode":"320115","cityCode":"3201","provinceCode":"32"},{"code":"320115009200","name":"官长村委会","streetCode":"320115009","areaCode":"320115","cityCode":"3201","provinceCode":"32"},{"code":"320115009201","name":"红旗村委会","streetCode":"320115009","areaCode":"320115","cityCode":"3201","provinceCode":"32"},{"code":"320115009202","name":"云台村委会","streetCode":"320115009","areaCode":"320115","cityCode":"3201","provinceCode":"32"},{"code":"320115009203","name":"安民村委会","streetCode":"320115009","areaCode":"320115","cityCode":"3201","provinceCode":"32"},{"code":"320115009204","name":"许呈村委会","streetCode":"320115009","areaCode":"320115","cityCode":"3201","provinceCode":"32"},{"code":"320115009205","name":"横山村委会","streetCode":"320115009","areaCode":"320115","cityCode":"3201","provinceCode":"32"},{"code":"320115009206","name":"勇跃村委会","streetCode":"320115009","areaCode":"320115","cityCode":"3201","provinceCode":"32"},{"code":"320115009207","name":"宁光村委会","streetCode":"320115009","areaCode":"320115","cityCode":"3201","provinceCode":"32"},{"code":"320115009208","name":"山景村委会","streetCode":"320115009","areaCode":"320115","cityCode":"3201","provinceCode":"32"},{"code":"320115009209","name":"许高村委会","streetCode":"320115009","areaCode":"320115","cityCode":"3201","provinceCode":"32"},{"code":"320115009210","name":"石塘村委会","streetCode":"320115009","areaCode":"320115","cityCode":"3201","provinceCode":"32"}]},{
            "streetName": "麒麟街道","villages": [{"code":"320115010001","name":"麒麟门社区居委会","streetCode":"320115010","areaCode":"320115","cityCode":"3201","provinceCode":"32"},{"code":"320115010002","name":"麒麟铺社区居委会","streetCode":"320115010","areaCode":"320115","cityCode":"3201","provinceCode":"32"},{"code":"320115010003","name":"晨光社区居委会","streetCode":"320115010","areaCode":"320115","cityCode":"3201","provinceCode":"32"},{"code":"320115010004","name":"锁石社区居委会","streetCode":"320115010","areaCode":"320115","cityCode":"3201","provinceCode":"32"},{"code":"320115010005","name":"建南社区居委会","streetCode":"320115010","areaCode":"320115","cityCode":"3201","provinceCode":"32"},{"code":"320115010006","name":"泉水社区居委会","streetCode":"320115010","areaCode":"320115","cityCode":"3201","provinceCode":"32"},{"code":"320115010200","name":"东流村委会","streetCode":"320115010","areaCode":"320115","cityCode":"3201","provinceCode":"32"},{"code":"320115010201","name":"袁家边村委会","streetCode":"320115010","areaCode":"320115","cityCode":"3201","provinceCode":"32"}]},{
            "streetName": "青龙山林场","villages": [{"code":"320115401498","name":"青龙山林场虚拟社区","streetCode":"320115401","areaCode":"320115","cityCode":"3201","provinceCode":"32"}]},{
            "streetName": "江宁开发区","villages": [{"code":"320115402498","name":"江宁开发区虚拟社区","streetCode":"320115402","areaCode":"320115","cityCode":"3201","provinceCode":"32"}]},{
            "streetName": "江宁滨江开发区","villages": [{"code":"320115403498","name":"江宁滨江开发区虚拟社区","streetCode":"320115403","areaCode":"320115","cityCode":"3201","provinceCode":"32"}]},{
            "streetName": "江宁高新技术产业园","villages": [{"code":"320115404498","name":"江宁高新技术产业园虚拟社区","streetCode":"320115404","areaCode":"320115","cityCode":"3201","provinceCode":"32"}]},{
            "streetName": "麒麟科技创新园（生态科技城）","villages": [{"code":"320115405498","name":"麒麟科技创新园（生态科技城）虚拟社区","streetCode":"320115405","areaCode":"320115","cityCode":"3201","provinceCode":"32"}]}]

          },
          {
            "areaName": "六合区","streets": [{
            "streetName": "大厂街道","villages": [{"code":"320116001001","name":"化建社区居委会","streetCode":"320116001","areaCode":"320116","cityCode":"3201","provinceCode":"32"},{"code":"320116001002","name":"晓山社区居委会","streetCode":"320116001","areaCode":"320116","cityCode":"3201","provinceCode":"32"},{"code":"320116001004","name":"吴家洼社区居委会","streetCode":"320116001","areaCode":"320116","cityCode":"3201","provinceCode":"32"},{"code":"320116001009","name":"九龙洼社区居委会","streetCode":"320116001","areaCode":"320116","cityCode":"3201","provinceCode":"32"},{"code":"320116001010","name":"湖滨社区居委会","streetCode":"320116001","areaCode":"320116","cityCode":"3201","provinceCode":"32"},{"code":"320116001013","name":"新庄社区居委会","streetCode":"320116001","areaCode":"320116","cityCode":"3201","provinceCode":"32"},{"code":"320116001017","name":"新华一村社区居委会","streetCode":"320116001","areaCode":"320116","cityCode":"3201","provinceCode":"32"},{"code":"320116001018","name":"周洼新村社区居委会","streetCode":"320116001","areaCode":"320116","cityCode":"3201","provinceCode":"32"},{"code":"320116001020","name":"太子山社区居委会","streetCode":"320116001","areaCode":"320116","cityCode":"3201","provinceCode":"32"},{"code":"320116001021","name":"新华七村社区居委会","streetCode":"320116001","areaCode":"320116","cityCode":"3201","provinceCode":"32"},{"code":"320116001022","name":"山潘新村社区居委会","streetCode":"320116001","areaCode":"320116","cityCode":"3201","provinceCode":"32"},{"code":"320116001023","name":"新华五村社区居委会","streetCode":"320116001","areaCode":"320116","cityCode":"3201","provinceCode":"32"},{"code":"320116001024","name":"新华六村社区居委会","streetCode":"320116001","areaCode":"320116","cityCode":"3201","provinceCode":"32"},{"code":"320116001025","name":"南化十村社区居委会","streetCode":"320116001","areaCode":"320116","cityCode":"3201","provinceCode":"32"},{"code":"320116001026","name":"南化九村社区居委会","streetCode":"320116001","areaCode":"320116","cityCode":"3201","provinceCode":"32"},{"code":"320116001027","name":"扬子第一社区居委会","streetCode":"320116001","areaCode":"320116","cityCode":"3201","provinceCode":"32"},{"code":"320116001028","name":"扬子第二社区居委会","streetCode":"320116001","areaCode":"320116","cityCode":"3201","provinceCode":"32"},{"code":"320116001029","name":"扬子第三社区居委会","streetCode":"320116001","areaCode":"320116","cityCode":"3201","provinceCode":"32"},{"code":"320116001030","name":"扬子第四社区居委会","streetCode":"320116001","areaCode":"320116","cityCode":"3201","provinceCode":"32"},{"code":"320116001031","name":"欣乐社区居委会","streetCode":"320116001","areaCode":"320116","cityCode":"3201","provinceCode":"32"},{"code":"320116001032","name":"和平社区居委会","streetCode":"320116001","areaCode":"320116","cityCode":"3201","provinceCode":"32"},{"code":"320116001033","name":"四周社区居委会","streetCode":"320116001","areaCode":"320116","cityCode":"3201","provinceCode":"32"},{"code":"320116001034","name":"草芳社区居委会","streetCode":"320116001","areaCode":"320116","cityCode":"3201","provinceCode":"32"},{"code":"320116001035","name":"旭东新城社区居委会","streetCode":"320116001","areaCode":"320116","cityCode":"3201","provinceCode":"32"}]},{
            "streetName": "葛塘街道","villages": [{"code":"320116004001","name":"中山社区居委会","streetCode":"320116004","areaCode":"320116","cityCode":"3201","provinceCode":"32"},{"code":"320116004005","name":"接待寺社区居委会","streetCode":"320116004","areaCode":"320116","cityCode":"3201","provinceCode":"32"},{"code":"320116004007","name":"工农社区居委会","streetCode":"320116004","areaCode":"320116","cityCode":"3201","provinceCode":"32"},{"code":"320116004008","name":"芳庭社区居委会","streetCode":"320116004","areaCode":"320116","cityCode":"3201","provinceCode":"32"},{"code":"320116004200","name":"长城社区村委会","streetCode":"320116004","areaCode":"320116","cityCode":"3201","provinceCode":"32"},{"code":"320116004201","name":"前程社区村委会","streetCode":"320116004","areaCode":"320116","cityCode":"3201","provinceCode":"32"},{"code":"320116004202","name":"官塘河社区村委会","streetCode":"320116004","areaCode":"320116","cityCode":"3201","provinceCode":"32"}]},{
            "streetName": "长芦街道","villages": [{"code":"320116005001","name":"长芦中心社区居委会","streetCode":"320116005","areaCode":"320116","cityCode":"3201","provinceCode":"32"},{"code":"320116005004","name":"陆营社区居委会","streetCode":"320116005","areaCode":"320116","cityCode":"3201","provinceCode":"32"},{"code":"320116005005","name":"六甲社区居委会","streetCode":"320116005","areaCode":"320116","cityCode":"3201","provinceCode":"32"},{"code":"320116005006","name":"普东社区居委会","streetCode":"320116005","areaCode":"320116","cityCode":"3201","provinceCode":"32"},{"code":"320116005007","name":"白玉社区居委会","streetCode":"320116005","areaCode":"320116","cityCode":"3201","provinceCode":"32"},{"code":"320116005200","name":"玉带社区村委会","streetCode":"320116005","areaCode":"320116","cityCode":"3201","provinceCode":"32"},{"code":"320116005201","name":"小摆渡社区村委会","streetCode":"320116005","areaCode":"320116","cityCode":"3201","provinceCode":"32"},{"code":"320116005202","name":"通江集社区村委会","streetCode":"320116005","areaCode":"320116","cityCode":"3201","provinceCode":"32"},{"code":"320116005203","name":"新犁社区村委会","streetCode":"320116005","areaCode":"320116","cityCode":"3201","provinceCode":"32"},{"code":"320116005204","name":"滨江社区村委会","streetCode":"320116005","areaCode":"320116","cityCode":"3201","provinceCode":"32"}]},{
            "streetName": "雄州街道","villages": [{"code":"320116006001","name":"灵岩社区居委会","streetCode":"320116006","areaCode":"320116","cityCode":"3201","provinceCode":"32"},{"code":"320116006002","name":"龙津社区居委会","streetCode":"320116006","areaCode":"320116","cityCode":"3201","provinceCode":"32"},{"code":"320116006003","name":"观滁社区居委会","streetCode":"320116006","areaCode":"320116","cityCode":"3201","provinceCode":"32"},{"code":"320116006004","name":"天一社区居委会","streetCode":"320116006","areaCode":"320116","cityCode":"3201","provinceCode":"32"},{"code":"320116006005","name":"古棠社区居委会","streetCode":"320116006","areaCode":"320116","cityCode":"3201","provinceCode":"32"},{"code":"320116006006","name":"荷花社区居委会","streetCode":"320116006","areaCode":"320116","cityCode":"3201","provinceCode":"32"},{"code":"320116006007","name":"紫霞社区居委会","streetCode":"320116006","areaCode":"320116","cityCode":"3201","provinceCode":"32"},{"code":"320116006008","name":"方州社区居委会","streetCode":"320116006","areaCode":"320116","cityCode":"3201","provinceCode":"32"},{"code":"320116006009","name":"凤凰社区居委会","streetCode":"320116006","areaCode":"320116","cityCode":"3201","provinceCode":"32"},{"code":"320116006010","name":"泰山社区居委会","streetCode":"320116006","areaCode":"320116","cityCode":"3201","provinceCode":"32"},{"code":"320116006011","name":"冶浦社区居委会","streetCode":"320116006","areaCode":"320116","cityCode":"3201","provinceCode":"32"},{"code":"320116006012","name":"桥西社区居委会","streetCode":"320116006","areaCode":"320116","cityCode":"3201","provinceCode":"32"},{"code":"320116006013","name":"白果社区居委会","streetCode":"320116006","areaCode":"320116","cityCode":"3201","provinceCode":"32"},{"code":"320116006014","name":"高余社区居委会","streetCode":"320116006","areaCode":"320116","cityCode":"3201","provinceCode":"32"},{"code":"320116006015","name":"瓜埠中心社区居委会","streetCode":"320116006","areaCode":"320116","cityCode":"3201","provinceCode":"32"},{"code":"320116006016","name":"台园社区居委会","streetCode":"320116006","areaCode":"320116","cityCode":"3201","provinceCode":"32"},{"code":"320116006017","name":"砂子沟社区居委会","streetCode":"320116006","areaCode":"320116","cityCode":"3201","provinceCode":"32"},{"code":"320116006018","name":"滨河社区居委会","streetCode":"320116006","areaCode":"320116","cityCode":"3201","provinceCode":"32"},{"code":"320116006209","name":"龙虎营社区村委会","streetCode":"320116006","areaCode":"320116","cityCode":"3201","provinceCode":"32"},{"code":"320116006211","name":"山北社区村委会","streetCode":"320116006","areaCode":"320116","cityCode":"3201","provinceCode":"32"},{"code":"320116006212","name":"钱仓社区村委会","streetCode":"320116006","areaCode":"320116","cityCode":"3201","provinceCode":"32"},{"code":"320116006213","name":"红光社区村委会","streetCode":"320116006","areaCode":"320116","cityCode":"3201","provinceCode":"32"}]},{
            "streetName": "龙池街道","villages": [{"code":"320116007001","name":"新集社区居委会","streetCode":"320116007","areaCode":"320116","cityCode":"3201","provinceCode":"32"},{"code":"320116007002","name":"龙池社区居委会","streetCode":"320116007","areaCode":"320116","cityCode":"3201","provinceCode":"32"},{"code":"320116007003","name":"毛许社区居委会","streetCode":"320116007","areaCode":"320116","cityCode":"3201","provinceCode":"32"},{"code":"320116007006","name":"四柳社区居委会","streetCode":"320116007","areaCode":"320116","cityCode":"3201","provinceCode":"32"},{"code":"320116007007","name":"李姚社区居委会","streetCode":"320116007","areaCode":"320116","cityCode":"3201","provinceCode":"32"},{"code":"320116007206","name":"头桥社区村委会","streetCode":"320116007","areaCode":"320116","cityCode":"3201","provinceCode":"32"},{"code":"320116007209","name":"刘林社区村委会","streetCode":"320116007","areaCode":"320116","cityCode":"3201","provinceCode":"32"},{"code":"320116007211","name":"朱营社区村委会","streetCode":"320116007","areaCode":"320116","cityCode":"3201","provinceCode":"32"}]},{
            "streetName": "程桥街道","villages": [{"code":"320116008001","name":"长青社区居委会","streetCode":"320116008","areaCode":"320116","cityCode":"3201","provinceCode":"32"},{"code":"320116008002","name":"竹程社区居委会","streetCode":"320116008","areaCode":"320116","cityCode":"3201","provinceCode":"32"},{"code":"320116008003","name":"唐楼社区居委会","streetCode":"320116008","areaCode":"320116","cityCode":"3201","provinceCode":"32"},{"code":"320116008004","name":"金庄社区居委会","streetCode":"320116008","areaCode":"320116","cityCode":"3201","provinceCode":"32"},{"code":"320116008005","name":"黄木桥社区居委会","streetCode":"320116008","areaCode":"320116","cityCode":"3201","provinceCode":"32"},{"code":"320116008202","name":"唐楼社区村委会","streetCode":"320116008","areaCode":"320116","cityCode":"3201","provinceCode":"32"},{"code":"320116008203","name":"古墩社区村委会","streetCode":"320116008","areaCode":"320116","cityCode":"3201","provinceCode":"32"},{"code":"320116008208","name":"金庄社区村委会","streetCode":"320116008","areaCode":"320116","cityCode":"3201","provinceCode":"32"},{"code":"320116008210","name":"河南社区村委会","streetCode":"320116008","areaCode":"320116","cityCode":"3201","provinceCode":"32"},{"code":"320116008212","name":"黄木桥社区村委会","streetCode":"320116008","areaCode":"320116","cityCode":"3201","provinceCode":"32"},{"code":"320116008216","name":"桂花社区村委会","streetCode":"320116008","areaCode":"320116","cityCode":"3201","provinceCode":"32"}]},{
            "streetName": "金牛湖街道","villages": [{"code":"320116009001","name":"八百桥社区居委会","streetCode":"320116009","areaCode":"320116","cityCode":"3201","provinceCode":"32"},{"code":"320116009003","name":"塘桥社区居委会","streetCode":"320116009","areaCode":"320116","cityCode":"3201","provinceCode":"32"},{"code":"320116009004","name":"长山社区居委会","streetCode":"320116009","areaCode":"320116","cityCode":"3201","provinceCode":"32"},{"code":"320116009005","name":"峨嵋山社区居委会","streetCode":"320116009","areaCode":"320116","cityCode":"3201","provinceCode":"32"},{"code":"320116009007","name":"金牛湖社区居委会","streetCode":"320116009","areaCode":"320116","cityCode":"3201","provinceCode":"32"},{"code":"320116009202","name":"马头山社区村委会","streetCode":"320116009","areaCode":"320116","cityCode":"3201","provinceCode":"32"},{"code":"320116009207","name":"金山社区村委会","streetCode":"320116009","areaCode":"320116","cityCode":"3201","provinceCode":"32"},{"code":"320116009211","name":"茉莉花社区村委会","streetCode":"320116009","areaCode":"320116","cityCode":"3201","provinceCode":"32"},{"code":"320116009217","name":"樊集社区村委会","streetCode":"320116009","areaCode":"320116","cityCode":"3201","provinceCode":"32"},{"code":"320116009219","name":"和仁社区村委会","streetCode":"320116009","areaCode":"320116","cityCode":"3201","provinceCode":"32"}]},{
            "streetName": "横梁桥街道","villages": [{"code":"320116010001","name":"横梁社区居委会","streetCode":"320116010","areaCode":"320116","cityCode":"3201","provinceCode":"32"},{"code":"320116010002","name":"王子庙社区居委会","streetCode":"320116010","areaCode":"320116","cityCode":"3201","provinceCode":"32"},{"code":"320116010004","name":"山东社区居委会","streetCode":"320116010","areaCode":"320116","cityCode":"3201","provinceCode":"32"},{"code":"320116010005","name":"石庙社区居委会","streetCode":"320116010","areaCode":"320116","cityCode":"3201","provinceCode":"32"},{"code":"320116010006","name":"新篁中心社区居委会","streetCode":"320116010","areaCode":"320116","cityCode":"3201","provinceCode":"32"},{"code":"320116010212","name":"方山社区村委会","streetCode":"320116010","areaCode":"320116","cityCode":"3201","provinceCode":"32"},{"code":"320116010213","name":"黄中社区村委会","streetCode":"320116010","areaCode":"320116","cityCode":"3201","provinceCode":"32"},{"code":"320116010214","name":"雨花石社区村委会","streetCode":"320116010","areaCode":"320116","cityCode":"3201","provinceCode":"32"},{"code":"320116010215","name":"上马社区村委会","streetCode":"320116010","areaCode":"320116","cityCode":"3201","provinceCode":"32"},{"code":"320116010216","name":"四新社区村委会","streetCode":"320116010","areaCode":"320116","cityCode":"3201","provinceCode":"32"},{"code":"320116010217","name":"钟林社区村委会","streetCode":"320116010","areaCode":"320116","cityCode":"3201","provinceCode":"32"},{"code":"320116010218","name":"三友湖社区村委会","streetCode":"320116010","areaCode":"320116","cityCode":"3201","provinceCode":"32"}]},{
            "streetName": "龙袍街道","villages": [{"code":"320116011001","name":"新城社区居委会","streetCode":"320116011","areaCode":"320116","cityCode":"3201","provinceCode":"32"},{"code":"320116011002","name":"长江社区居委会","streetCode":"320116011","areaCode":"320116","cityCode":"3201","provinceCode":"32"},{"code":"320116011003","name":"楼子社区居委会","streetCode":"320116011","areaCode":"320116","cityCode":"3201","provinceCode":"32"},{"code":"320116011004","name":"渔樵社区居委会","streetCode":"320116011","areaCode":"320116","cityCode":"3201","provinceCode":"32"},{"code":"320116011005","name":"新桥社区居委会","streetCode":"320116011","areaCode":"320116","cityCode":"3201","provinceCode":"32"},{"code":"320116011006","name":"东沟中心社区居委会","streetCode":"320116011","areaCode":"320116","cityCode":"3201","provinceCode":"32"},{"code":"320116011200","name":"赵坝社区村委会","streetCode":"320116011","areaCode":"320116","cityCode":"3201","provinceCode":"32"},{"code":"320116011201","name":"大河口社区村委会","streetCode":"320116011","areaCode":"320116","cityCode":"3201","provinceCode":"32"},{"code":"320116011202","name":"平原社区村委会","streetCode":"320116011","areaCode":"320116","cityCode":"3201","provinceCode":"32"},{"code":"320116011203","name":"孙赵社区村委会","streetCode":"320116011","areaCode":"320116","cityCode":"3201","provinceCode":"32"},{"code":"320116011204","name":"团结社区村委会","streetCode":"320116011","areaCode":"320116","cityCode":"3201","provinceCode":"32"}]},{
            "streetName": "马鞍街道","villages": [{"code":"320116012001","name":"马集社区居委会","streetCode":"320116012","areaCode":"320116","cityCode":"3201","provinceCode":"32"},{"code":"320116012002","name":"马鞍中心社区居委会","streetCode":"320116012","areaCode":"320116","cityCode":"3201","provinceCode":"32"},{"code":"320116012003","name":"城西社区居委会","streetCode":"320116012","areaCode":"320116","cityCode":"3201","provinceCode":"32"},{"code":"320116012200","name":"黄岗社区村委会","streetCode":"320116012","areaCode":"320116","cityCode":"3201","provinceCode":"32"},{"code":"320116012201","name":"巴山社区村委会","streetCode":"320116012","areaCode":"320116","cityCode":"3201","provinceCode":"32"},{"code":"320116012202","name":"尖山社区村委会","streetCode":"320116012","areaCode":"320116","cityCode":"3201","provinceCode":"32"},{"code":"320116012203","name":"河王湖社区村委会","streetCode":"320116012","areaCode":"320116","cityCode":"3201","provinceCode":"32"},{"code":"320116012204","name":"大圣社区村委会","streetCode":"320116012","areaCode":"320116","cityCode":"3201","provinceCode":"32"},{"code":"320116012205","name":"泥桥社区村委会","streetCode":"320116012","areaCode":"320116","cityCode":"3201","provinceCode":"32"},{"code":"320116012206","name":"玉王社区村委会","streetCode":"320116012","areaCode":"320116","cityCode":"3201","provinceCode":"32"},{"code":"320116012207","name":"黄赵社区村委会","streetCode":"320116012","areaCode":"320116","cityCode":"3201","provinceCode":"32"},{"code":"320116012208","name":"平山社区村委会","streetCode":"320116012","areaCode":"320116","cityCode":"3201","provinceCode":"32"},{"code":"320116012209","name":"郭营社区村委会","streetCode":"320116012","areaCode":"320116","cityCode":"3201","provinceCode":"32"},{"code":"320116012210","name":"大营社区村委会","streetCode":"320116012","areaCode":"320116","cityCode":"3201","provinceCode":"32"},{"code":"320116012211","name":"勤丰社区村委会","streetCode":"320116012","areaCode":"320116","cityCode":"3201","provinceCode":"32"}]},{
            "streetName": "冶山街道","villages": [{"code":"320116013001","name":"四合墩社区居委会","streetCode":"320116013","areaCode":"320116","cityCode":"3201","provinceCode":"32"},{"code":"320116013002","name":"冶山社区居委会","streetCode":"320116013","areaCode":"320116","cityCode":"3201","provinceCode":"32"},{"code":"320116013003","name":"东王社区居委会","streetCode":"320116013","areaCode":"320116","cityCode":"3201","provinceCode":"32"},{"code":"320116013004","name":"石柱林社区居委会","streetCode":"320116013","areaCode":"320116","cityCode":"3201","provinceCode":"32"},{"code":"320116013005","name":"白云山社区居委会","streetCode":"320116013","areaCode":"320116","cityCode":"3201","provinceCode":"32"},{"code":"320116013200","name":"瓜娄社区村委会","streetCode":"320116013","areaCode":"320116","cityCode":"3201","provinceCode":"32"},{"code":"320116013201","name":"岗陈社区村委会","streetCode":"320116013","areaCode":"320116","cityCode":"3201","provinceCode":"32"},{"code":"320116013202","name":"双墩社区村委会","streetCode":"320116013","areaCode":"320116","cityCode":"3201","provinceCode":"32"}]},{
            "streetName": "竹镇镇","villages": [{"code":"320116110001","name":"竹墩社区居委会","streetCode":"320116110","areaCode":"320116","cityCode":"3201","provinceCode":"32"},{"code":"320116110002","name":"烟墩社区居委会","streetCode":"320116110","areaCode":"320116","cityCode":"3201","provinceCode":"32"},{"code":"320116110003","name":"金磁社区居委会","streetCode":"320116110","areaCode":"320116","cityCode":"3201","provinceCode":"32"},{"code":"320116110004","name":"送驾社区居委会","streetCode":"320116110","areaCode":"320116","cityCode":"3201","provinceCode":"32"},{"code":"320116110005","name":"八里社区居委会","streetCode":"320116110","areaCode":"320116","cityCode":"3201","provinceCode":"32"},{"code":"320116110006","name":"大侯社区居委会","streetCode":"320116110","areaCode":"320116","cityCode":"3201","provinceCode":"32"},{"code":"320116110203","name":"金磁社区村委会","streetCode":"320116110","areaCode":"320116","cityCode":"3201","provinceCode":"32"},{"code":"320116110204","name":"烟墩社区村委会","streetCode":"320116110","areaCode":"320116","cityCode":"3201","provinceCode":"32"},{"code":"320116110206","name":"八里社区村委会","streetCode":"320116110","areaCode":"320116","cityCode":"3201","provinceCode":"32"},{"code":"320116110207","name":"大侯社区村委会","streetCode":"320116110","areaCode":"320116","cityCode":"3201","provinceCode":"32"},{"code":"320116110208","name":"乌石社区村委会","streetCode":"320116110","areaCode":"320116","cityCode":"3201","provinceCode":"32"},{"code":"320116110210","name":"石婆社区村委会","streetCode":"320116110","areaCode":"320116","cityCode":"3201","provinceCode":"32"},{"code":"320116110217","name":"侯桥社区村委会","streetCode":"320116110","areaCode":"320116","cityCode":"3201","provinceCode":"32"},{"code":"320116110218","name":"大泉社区村委会","streetCode":"320116110","areaCode":"320116","cityCode":"3201","provinceCode":"32"},{"code":"320116110221","name":"光华社区村委会","streetCode":"320116110","areaCode":"320116","cityCode":"3201","provinceCode":"32"},{"code":"320116110224","name":"送驾社区村委会","streetCode":"320116110","areaCode":"320116","cityCode":"3201","provinceCode":"32"}]},{
            "streetName": "六合开发区","villages": [{"code":"320116400498","name":"六合开发区虚拟社区","streetCode":"320116400","areaCode":"320116","cityCode":"3201","provinceCode":"32"}]},{
            "streetName": "新材料产业园","villages": [{"code":"320116401498","name":"新材料产业园虚拟社区","streetCode":"320116401","areaCode":"320116","cityCode":"3201","provinceCode":"32"}]},{
            "streetName": "化工园区","villages": [{"code":"320116450498","name":"化工园区虚拟社区","streetCode":"320116450","areaCode":"320116","cityCode":"3201","provinceCode":"32"}]}]
          },
          {
            "areaName": "溧水区","streets": [{
            "streetName": "永阳街道","villages": [{"code":"320117001001","name":"中山路居委会","streetCode":"320117001","areaCode":"320117","cityCode":"3201","provinceCode":"32"},{"code":"320117001002","name":"庆丰路居委会","streetCode":"320117001","areaCode":"320117","cityCode":"3201","provinceCode":"32"},{"code":"320117001003","name":"毓秀路居委会","streetCode":"320117001","areaCode":"320117","cityCode":"3201","provinceCode":"32"},{"code":"320117001004","name":"东门街居委会","streetCode":"320117001","areaCode":"320117","cityCode":"3201","provinceCode":"32"},{"code":"320117001006","name":"通济街居委会","streetCode":"320117001","areaCode":"320117","cityCode":"3201","provinceCode":"32"},{"code":"320117001007","name":"状元坊居委会","streetCode":"320117001","areaCode":"320117","cityCode":"3201","provinceCode":"32"},{"code":"320117001008","name":"宝塔路居委会","streetCode":"320117001","areaCode":"320117","cityCode":"3201","provinceCode":"32"},{"code":"320117001009","name":"交通路居委会","streetCode":"320117001","areaCode":"320117","cityCode":"3201","provinceCode":"32"},{"code":"320117001010","name":"财贸新村居委会","streetCode":"320117001","areaCode":"320117","cityCode":"3201","provinceCode":"32"},{"code":"320117001011","name":"板桥居委会","streetCode":"320117001","areaCode":"320117","cityCode":"3201","provinceCode":"32"},{"code":"320117001012","name":"秦淮路居委会","streetCode":"320117001","areaCode":"320117","cityCode":"3201","provinceCode":"32"},{"code":"320117001013","name":"城郊社区居委会","streetCode":"320117001","areaCode":"320117","cityCode":"3201","provinceCode":"32"},{"code":"320117001014","name":"戴家社区居委会","streetCode":"320117001","areaCode":"320117","cityCode":"3201","provinceCode":"32"},{"code":"320117001015","name":"十里牌社区居委会","streetCode":"320117001","areaCode":"320117","cityCode":"3201","provinceCode":"32"},{"code":"320117001016","name":"工农兵社区居委会","streetCode":"320117001","areaCode":"320117","cityCode":"3201","provinceCode":"32"},{"code":"320117001017","name":"东庐社区居委会","streetCode":"320117001","areaCode":"320117","cityCode":"3201","provinceCode":"32"},{"code":"320117001018","name":"石巷社区居委会","streetCode":"320117001","areaCode":"320117","cityCode":"3201","provinceCode":"32"},{"code":"320117001019","name":"中山社区居委会","streetCode":"320117001","areaCode":"320117","cityCode":"3201","provinceCode":"32"},{"code":"320117001020","name":"致远社区居委会","streetCode":"320117001","areaCode":"320117","cityCode":"3201","provinceCode":"32"},{"code":"320117001021","name":"龙山社区居委会","streetCode":"320117001","areaCode":"320117","cityCode":"3201","provinceCode":"32"},{"code":"320117001022","name":"仪凤社区居委会","streetCode":"320117001","areaCode":"320117","cityCode":"3201","provinceCode":"32"},{"code":"320117001023","name":"崇文社区居委会","streetCode":"320117001","areaCode":"320117","cityCode":"3201","provinceCode":"32"},{"code":"320117001024","name":"恒大社区居委会","streetCode":"320117001","areaCode":"320117","cityCode":"3201","provinceCode":"32"},{"code":"320117001207","name":"秋湖村委会","streetCode":"320117001","areaCode":"320117","cityCode":"3201","provinceCode":"32"},{"code":"320117001209","name":"高塘村委会","streetCode":"320117001","areaCode":"320117","cityCode":"3201","provinceCode":"32"},{"code":"320117001210","name":"东山村委会","streetCode":"320117001","areaCode":"320117","cityCode":"3201","provinceCode":"32"}]},{
            "streetName": "柘塘街道","villages": [{"code":"320117002001","name":"梅山社区居委会","streetCode":"320117002","areaCode":"320117","cityCode":"3201","provinceCode":"32"},{"code":"320117002002","name":"红星社区居委会","streetCode":"320117002","areaCode":"320117","cityCode":"3201","provinceCode":"32"},{"code":"320117002003","name":"共和社区居委会","streetCode":"320117002","areaCode":"320117","cityCode":"3201","provinceCode":"32"},{"code":"320117002004","name":"新淮社区居委会","streetCode":"320117002","areaCode":"320117","cityCode":"3201","provinceCode":"32"},{"code":"320117002005","name":"交山社区居委会","streetCode":"320117002","areaCode":"320117","cityCode":"3201","provinceCode":"32"},{"code":"320117002006","name":"富滨社区居委会","streetCode":"320117002","areaCode":"320117","cityCode":"3201","provinceCode":"32"},{"code":"320117002007","name":"华桥社区居委会","streetCode":"320117002","areaCode":"320117","cityCode":"3201","provinceCode":"32"},{"code":"320117002008","name":"福田社区居委会","streetCode":"320117002","areaCode":"320117","cityCode":"3201","provinceCode":"32"},{"code":"320117002009","name":"秦淮社区居委会","streetCode":"320117002","areaCode":"320117","cityCode":"3201","provinceCode":"32"},{"code":"320117002010","name":"联民社区居委会","streetCode":"320117002","areaCode":"320117","cityCode":"3201","provinceCode":"32"},{"code":"320117002011","name":"爱景社区居委会","streetCode":"320117002","areaCode":"320117","cityCode":"3201","provinceCode":"32"},{"code":"320117002012","name":"群力社区居委会","streetCode":"320117002","areaCode":"320117","cityCode":"3201","provinceCode":"32"},{"code":"320117002213","name":"沙河村委会","streetCode":"320117002","areaCode":"320117","cityCode":"3201","provinceCode":"32"},{"code":"320117002214","name":"景山村委会","streetCode":"320117002","areaCode":"320117","cityCode":"3201","provinceCode":"32"}]},{
            "streetName": "东屏街道","villages": [{"code":"320117003001","name":"方边居委会","streetCode":"320117003","areaCode":"320117","cityCode":"3201","provinceCode":"32"},{"code":"320117003003","name":"徐溪社区居委会","streetCode":"320117003","areaCode":"320117","cityCode":"3201","provinceCode":"32"},{"code":"320117003004","name":"金湖社区居委会","streetCode":"320117003","areaCode":"320117","cityCode":"3201","provinceCode":"32"},{"code":"320117003005","name":"长乐社区居委会","streetCode":"320117003","areaCode":"320117","cityCode":"3201","provinceCode":"32"},{"code":"320117003006","name":"定湖社区居委会","streetCode":"320117003","areaCode":"320117","cityCode":"3201","provinceCode":"32"},{"code":"320117003200","name":"白鹿村委会","streetCode":"320117003","areaCode":"320117","cityCode":"3201","provinceCode":"32"},{"code":"320117003201","name":"丽山村委会","streetCode":"320117003","areaCode":"320117","cityCode":"3201","provinceCode":"32"},{"code":"320117003210","name":"和平村委会","streetCode":"320117003","areaCode":"320117","cityCode":"3201","provinceCode":"32"},{"code":"320117003211","name":"爱民村委会","streetCode":"320117003","areaCode":"320117","cityCode":"3201","provinceCode":"32"},{"code":"320117003212","name":"爱廉村委会","streetCode":"320117003","areaCode":"320117","cityCode":"3201","provinceCode":"32"}]},{
            "streetName": "石湫街道","villages": [{"code":"320117004001","name":"石湫社区居委会","streetCode":"320117004","areaCode":"320117","cityCode":"3201","provinceCode":"32"},{"code":"320117004002","name":"明觉社区居委会","streetCode":"320117004","areaCode":"320117","cityCode":"3201","provinceCode":"32"},{"code":"320117004003","name":"塘窦村社区居委会","streetCode":"320117004","areaCode":"320117","cityCode":"3201","provinceCode":"32"},{"code":"320117004004","name":"社东社区居委会","streetCode":"320117004","areaCode":"320117","cityCode":"3201","provinceCode":"32"},{"code":"320117004005","name":"蟹塘社区居委会","streetCode":"320117004","areaCode":"320117","cityCode":"3201","provinceCode":"32"},{"code":"320117004006","name":"光明社区居委会","streetCode":"320117004","areaCode":"320117","cityCode":"3201","provinceCode":"32"},{"code":"320117004202","name":"桑元蒲村委会","streetCode":"320117004","areaCode":"320117","cityCode":"3201","provinceCode":"32"},{"code":"320117004203","name":"横山村委会","streetCode":"320117004","areaCode":"320117","cityCode":"3201","provinceCode":"32"},{"code":"320117004206","name":"九塘村委会","streetCode":"320117004","areaCode":"320117","cityCode":"3201","provinceCode":"32"},{"code":"320117004207","name":"上方村委会","streetCode":"320117004","areaCode":"320117","cityCode":"3201","provinceCode":"32"},{"code":"320117004208","name":"同心村委会","streetCode":"320117004","areaCode":"320117","cityCode":"3201","provinceCode":"32"},{"code":"320117004209","name":"三星村委会","streetCode":"320117004","areaCode":"320117","cityCode":"3201","provinceCode":"32"},{"code":"320117004210","name":"向阳村委会","streetCode":"320117004","areaCode":"320117","cityCode":"3201","provinceCode":"32"},{"code":"320117004211","name":"东泉村委会","streetCode":"320117004","areaCode":"320117","cityCode":"3201","provinceCode":"32"}]},{
            "streetName": "洪蓝街道","villages": [{"code":"320117005001","name":"洪蓝居委会","streetCode":"320117005","areaCode":"320117","cityCode":"3201","provinceCode":"32"},{"code":"320117005002","name":"蒲塘居委会","streetCode":"320117005","areaCode":"320117","cityCode":"3201","provinceCode":"32"},{"code":"320117005003","name":"三里亭社区居委会","streetCode":"320117005","areaCode":"320117","cityCode":"3201","provinceCode":"32"},{"code":"320117005004","name":"无想寺社区居委会","streetCode":"320117005","areaCode":"320117","cityCode":"3201","provinceCode":"32"},{"code":"320117005005","name":"天生桥社区居委会","streetCode":"320117005","areaCode":"320117","cityCode":"3201","provinceCode":"32"},{"code":"320117005006","name":"西旺社区居委会","streetCode":"320117005","areaCode":"320117","cityCode":"3201","provinceCode":"32"},{"code":"320117005007","name":"傅家边社区居委会","streetCode":"320117005","areaCode":"320117","cityCode":"3201","provinceCode":"32"},{"code":"320117005008","name":"上港社区居委会","streetCode":"320117005","areaCode":"320117","cityCode":"3201","provinceCode":"32"},{"code":"320117005204","name":"青锋村委会","streetCode":"320117005","areaCode":"320117","cityCode":"3201","provinceCode":"32"},{"code":"320117005205","name":"塘西村委会","streetCode":"320117005","areaCode":"320117","cityCode":"3201","provinceCode":"32"},{"code":"320117005211","name":"陈卞村委会","streetCode":"320117005","areaCode":"320117","cityCode":"3201","provinceCode":"32"},{"code":"320117005212","name":"姜家村委会","streetCode":"320117005","areaCode":"320117","cityCode":"3201","provinceCode":"32"}]},{
            "streetName": "白马镇","villages": [{"code":"320117101001","name":"白马桥居委会","streetCode":"320117101","areaCode":"320117","cityCode":"3201","provinceCode":"32"},{"code":"320117101002","name":"金谷居委会","streetCode":"320117101","areaCode":"320117","cityCode":"3201","provinceCode":"32"},{"code":"320117101003","name":"上洋社区居委会","streetCode":"320117101","areaCode":"320117","cityCode":"3201","provinceCode":"32"},{"code":"320117101004","name":"革新社区居委会","streetCode":"320117101","areaCode":"320117","cityCode":"3201","provinceCode":"32"},{"code":"320117101005","name":"朱家边社区居委会","streetCode":"320117101","areaCode":"320117","cityCode":"3201","provinceCode":"32"},{"code":"320117101006","name":"白龙社区居委会","streetCode":"320117101","areaCode":"320117","cityCode":"3201","provinceCode":"32"},{"code":"320117101205","name":"石头寨村委会","streetCode":"320117101","areaCode":"320117","cityCode":"3201","provinceCode":"32"},{"code":"320117101206","name":"曹家桥村委会","streetCode":"320117101","areaCode":"320117","cityCode":"3201","provinceCode":"32"},{"code":"320117101207","name":"大树下村委会","streetCode":"320117101","areaCode":"320117","cityCode":"3201","provinceCode":"32"},{"code":"320117101213","name":"浮山村委会","streetCode":"320117101","areaCode":"320117","cityCode":"3201","provinceCode":"32"}]},{
            "streetName": "晶桥镇","villages": [{"code":"320117106001","name":"新桥居委会","streetCode":"320117106","areaCode":"320117","cityCode":"3201","provinceCode":"32"},{"code":"320117106002","name":"杭村居委会","streetCode":"320117106","areaCode":"320117","cityCode":"3201","provinceCode":"32"},{"code":"320117106003","name":"陶村社区居委会","streetCode":"320117106","areaCode":"320117","cityCode":"3201","provinceCode":"32"},{"code":"320117106004","name":"芮家社区居委会","streetCode":"320117106","areaCode":"320117","cityCode":"3201","provinceCode":"32"},{"code":"320117106005","name":"枫香岭社区居委会","streetCode":"320117106","areaCode":"320117","cityCode":"3201","provinceCode":"32"},{"code":"320117106201","name":"笪村村委会","streetCode":"320117106","areaCode":"320117","cityCode":"3201","provinceCode":"32"},{"code":"320117106204","name":"水晶村委会","streetCode":"320117106","areaCode":"320117","cityCode":"3201","provinceCode":"32"},{"code":"320117106205","name":"云鹤山村委会","streetCode":"320117106","areaCode":"320117","cityCode":"3201","provinceCode":"32"},{"code":"320117106208","name":"芝山村委会","streetCode":"320117106","areaCode":"320117","cityCode":"3201","provinceCode":"32"},{"code":"320117106209","name":"孔家村委会","streetCode":"320117106","areaCode":"320117","cityCode":"3201","provinceCode":"32"},{"code":"320117106210","name":"仙坛村委会","streetCode":"320117106","areaCode":"320117","cityCode":"3201","provinceCode":"32"},{"code":"320117106211","name":"邰村村委会","streetCode":"320117106","areaCode":"320117","cityCode":"3201","provinceCode":"32"}]},{
            "streetName": "和凤镇","villages": [{"code":"320117107001","name":"双牌石集镇居委会","streetCode":"320117107","areaCode":"320117","cityCode":"3201","provinceCode":"32"},{"code":"320117107002","name":"孔镇社区居委会","streetCode":"320117107","areaCode":"320117","cityCode":"3201","provinceCode":"32"},{"code":"320117107003","name":"毛公铺社区居委会","streetCode":"320117107","areaCode":"320117","cityCode":"3201","provinceCode":"32"},{"code":"320117107004","name":"沙塘庵社区居委会","streetCode":"320117107","areaCode":"320117","cityCode":"3201","provinceCode":"32"},{"code":"320117107005","name":"乌飞塘社区居委会","streetCode":"320117107","areaCode":"320117","cityCode":"3201","provinceCode":"32"},{"code":"320117107201","name":"沈家山村委会","streetCode":"320117107","areaCode":"320117","cityCode":"3201","provinceCode":"32"},{"code":"320117107203","name":"张家村委会","streetCode":"320117107","areaCode":"320117","cityCode":"3201","provinceCode":"32"},{"code":"320117107204","name":"孙家巷村委会","streetCode":"320117107","areaCode":"320117","cityCode":"3201","provinceCode":"32"},{"code":"320117107206","name":"吴村桥村委会","streetCode":"320117107","areaCode":"320117","cityCode":"3201","provinceCode":"32"},{"code":"320117107209","name":"中杨村委会","streetCode":"320117107","areaCode":"320117","cityCode":"3201","provinceCode":"32"},{"code":"320117107210","name":"骆山村委会","streetCode":"320117107","areaCode":"320117","cityCode":"3201","provinceCode":"32"}]},{
            "streetName": "溧水开发区","villages": [{"code":"320117400002","name":"机场路居委会","streetCode":"320117400","areaCode":"320117","cityCode":"3201","provinceCode":"32"},{"code":"320117400003","name":"前进居委会","streetCode":"320117400","areaCode":"320117","cityCode":"3201","provinceCode":"32"},{"code":"320117400005","name":"荷花居委会","streetCode":"320117400","areaCode":"320117","cityCode":"3201","provinceCode":"32"}]}]

          },
          {
            "areaName": "高淳区","streets": [{
            "streetName": "淳溪街道","villages": [{"code":"320118001001","name":"凤岭社区居委会","streetCode":"320118001","areaCode":"320118","cityCode":"3201","provinceCode":"32"},{"code":"320118001002","name":"淳西社区居委会","streetCode":"320118001","areaCode":"320118","cityCode":"3201","provinceCode":"32"},{"code":"320118001003","name":"河滨社区居委会","streetCode":"320118001","areaCode":"320118","cityCode":"3201","provinceCode":"32"},{"code":"320118001004","name":"南漪社区居委会","streetCode":"320118001","areaCode":"320118","cityCode":"3201","provinceCode":"32"},{"code":"320118001005","name":"栗园社区居委会","streetCode":"320118001","areaCode":"320118","cityCode":"3201","provinceCode":"32"},{"code":"320118001006","name":"淳安社区居委会","streetCode":"320118001","areaCode":"320118","cityCode":"3201","provinceCode":"32"},{"code":"320118001007","name":"北漪社区居委会","streetCode":"320118001","areaCode":"320118","cityCode":"3201","provinceCode":"32"},{"code":"320118001008","name":"大桥社区居委会","streetCode":"320118001","areaCode":"320118","cityCode":"3201","provinceCode":"32"},{"code":"320118001009","name":"王村社区居委会","streetCode":"320118001","areaCode":"320118","cityCode":"3201","provinceCode":"32"},{"code":"320118001010","name":"西舍社区居委会","streetCode":"320118001","areaCode":"320118","cityCode":"3201","provinceCode":"32"},{"code":"320118001011","name":"八字角社区居委会","streetCode":"320118001","areaCode":"320118","cityCode":"3201","provinceCode":"32"},{"code":"320118001012","name":"姜家社区居委会","streetCode":"320118001","areaCode":"320118","cityCode":"3201","provinceCode":"32"},{"code":"320118001013","name":"渭凤社区居委会","streetCode":"320118001","areaCode":"320118","cityCode":"3201","provinceCode":"32"},{"code":"320118001014","name":"宝塔社区居委会","streetCode":"320118001","areaCode":"320118","cityCode":"3201","provinceCode":"32"},{"code":"320118001015","name":"戴村社区居委会","streetCode":"320118001","areaCode":"320118","cityCode":"3201","provinceCode":"32"},{"code":"320118001016","name":"河城社区居委会","streetCode":"320118001","areaCode":"320118","cityCode":"3201","provinceCode":"32"},{"code":"320118001017","name":"甫头社区居委会","streetCode":"320118001","areaCode":"320118","cityCode":"3201","provinceCode":"32"},{"code":"320118001018","name":"渔业社区居委会","streetCode":"320118001","areaCode":"320118","cityCode":"3201","provinceCode":"32"},{"code":"320118001019","name":"甘村社区居委会","streetCode":"320118001","areaCode":"320118","cityCode":"3201","provinceCode":"32"},{"code":"320118001020","name":"南塘社区居委会","streetCode":"320118001","areaCode":"320118","cityCode":"3201","provinceCode":"32"},{"code":"320118001021","name":"驼头社区居委会","streetCode":"320118001","areaCode":"320118","cityCode":"3201","provinceCode":"32"},{"code":"320118001022","name":"双进社区居委会","streetCode":"320118001","areaCode":"320118","cityCode":"3201","provinceCode":"32"},{"code":"320118001023","name":"薛城社区居委会","streetCode":"320118001","areaCode":"320118","cityCode":"3201","provinceCode":"32"},{"code":"320118001024","name":"南湖社区居委会","streetCode":"320118001","areaCode":"320118","cityCode":"3201","provinceCode":"32"},{"code":"320118001025","name":"大丰社区居委会","streetCode":"320118001","areaCode":"320118","cityCode":"3201","provinceCode":"32"},{"code":"320118001026","name":"淳东社区居委会","streetCode":"320118001","areaCode":"320118","cityCode":"3201","provinceCode":"32"},{"code":"320118001218","name":"杨家村委会","streetCode":"320118001","areaCode":"320118","cityCode":"3201","provinceCode":"32"},{"code":"320118001219","name":"花奔村委会","streetCode":"320118001","areaCode":"320118","cityCode":"3201","provinceCode":"32"},{"code":"320118001220","name":"荣复村委会","streetCode":"320118001","areaCode":"320118","cityCode":"3201","provinceCode":"32"},{"code":"320118001222","name":"临城村委会","streetCode":"320118001","areaCode":"320118","cityCode":"3201","provinceCode":"32"},{"code":"320118001224","name":"邢丰村委会","streetCode":"320118001","areaCode":"320118","cityCode":"3201","provinceCode":"32"},{"code":"320118001226","name":"长乐村委会","streetCode":"320118001","areaCode":"320118","cityCode":"3201","provinceCode":"32"}]},{
            "streetName": "古柏街道","villages": [{"code":"320118002001","name":"韩村社区居委会","streetCode":"320118002","areaCode":"320118","cityCode":"3201","provinceCode":"32"},{"code":"320118002002","name":"卫棠社区居委会","streetCode":"320118002","areaCode":"320118","cityCode":"3201","provinceCode":"32"},{"code":"320118002003","name":"永宋社区居委会","streetCode":"320118002","areaCode":"320118","cityCode":"3201","provinceCode":"32"},{"code":"320118002004","name":"袁村社区居委会","streetCode":"320118002","areaCode":"320118","cityCode":"3201","provinceCode":"32"},{"code":"320118002005","name":"戴家城社区居委会","streetCode":"320118002","areaCode":"320118","cityCode":"3201","provinceCode":"32"},{"code":"320118002006","name":"古柏社区居委会","streetCode":"320118002","areaCode":"320118","cityCode":"3201","provinceCode":"32"},{"code":"320118002007","name":"江张社区居委会","streetCode":"320118002","areaCode":"320118","cityCode":"3201","provinceCode":"32"},{"code":"320118002008","name":"段曲头社区居委会","streetCode":"320118002","areaCode":"320118","cityCode":"3201","provinceCode":"32"},{"code":"320118002009","name":"丁檀社区居委会","streetCode":"320118002","areaCode":"320118","cityCode":"3201","provinceCode":"32"},{"code":"320118002010","name":"联合社区居委会","streetCode":"320118002","areaCode":"320118","cityCode":"3201","provinceCode":"32"},{"code":"320118002201","name":"三保村委会","streetCode":"320118002","areaCode":"320118","cityCode":"3201","provinceCode":"32"},{"code":"320118002203","name":"武家嘴村委会","streetCode":"320118002","areaCode":"320118","cityCode":"3201","provinceCode":"32"},{"code":"320118002204","name":"唐翔村委会","streetCode":"320118002","areaCode":"320118","cityCode":"3201","provinceCode":"32"},{"code":"320118002206","name":"双红村委会","streetCode":"320118002","areaCode":"320118","cityCode":"3201","provinceCode":"32"},{"code":"320118002210","name":"凤纬村委会","streetCode":"320118002","areaCode":"320118","cityCode":"3201","provinceCode":"32"}]},{
            "streetName": "漆桥街道","villages": [{"code":"320118003001","name":"漆桥村社区居委会","streetCode":"320118003","areaCode":"320118","cityCode":"3201","provinceCode":"32"},{"code":"320118003002","name":"双游村社区居委会","streetCode":"320118003","areaCode":"320118","cityCode":"3201","provinceCode":"32"},{"code":"320118003003","name":"双联村社区居委会","streetCode":"320118003","areaCode":"320118","cityCode":"3201","provinceCode":"32"},{"code":"320118003201","name":"中心村村委会","streetCode":"320118003","areaCode":"320118","cityCode":"3201","provinceCode":"32"},{"code":"320118003202","name":"和平村村委会","streetCode":"320118003","areaCode":"320118","cityCode":"3201","provinceCode":"32"},{"code":"320118003203","name":"茅山村村委会","streetCode":"320118003","areaCode":"320118","cityCode":"3201","provinceCode":"32"},{"code":"320118003206","name":"荆溪村村委会","streetCode":"320118003","areaCode":"320118","cityCode":"3201","provinceCode":"32"}]},{
            "streetName": "固城街道","villages": [{"code":"320118004001","name":"固城社区居委会","streetCode":"320118004","areaCode":"320118","cityCode":"3201","provinceCode":"32"},{"code":"320118004002","name":"双全社区居委会","streetCode":"320118004","areaCode":"320118","cityCode":"3201","provinceCode":"32"},{"code":"320118004003","name":"游山社区居委会","streetCode":"320118004","areaCode":"320118","cityCode":"3201","provinceCode":"32"},{"code":"320118004004","name":"桥头社区居委会","streetCode":"320118004","areaCode":"320118","cityCode":"3201","provinceCode":"32"},{"code":"320118004005","name":"蒋山社区居委会","streetCode":"320118004","areaCode":"320118","cityCode":"3201","provinceCode":"32"},{"code":"320118004006","name":"花联社区居委会","streetCode":"320118004","areaCode":"320118","cityCode":"3201","provinceCode":"32"},{"code":"320118004007","name":"漕塘社区居委会","streetCode":"320118004","areaCode":"320118","cityCode":"3201","provinceCode":"32"},{"code":"320118004008","name":"九龙社区居委会","streetCode":"320118004","areaCode":"320118","cityCode":"3201","provinceCode":"32"},{"code":"320118004009","name":"前进社区居委会","streetCode":"320118004","areaCode":"320118","cityCode":"3201","provinceCode":"32"},{"code":"320118004201","name":"双岗村委会","streetCode":"320118004","areaCode":"320118","cityCode":"3201","provinceCode":"32"},{"code":"320118004204","name":"庙岗村委会","streetCode":"320118004","areaCode":"320118","cityCode":"3201","provinceCode":"32"},{"code":"320118004205","name":"禅林村委会","streetCode":"320118004","areaCode":"320118","cityCode":"3201","provinceCode":"32"},{"code":"320118004206","name":"振兴村委会","streetCode":"320118004","areaCode":"320118","cityCode":"3201","provinceCode":"32"},{"code":"320118004207","name":"曙光村委会","streetCode":"320118004","areaCode":"320118","cityCode":"3201","provinceCode":"32"},{"code":"320118004214","name":"三陇村委会","streetCode":"320118004","areaCode":"320118","cityCode":"3201","provinceCode":"32"},{"code":"320118004215","name":"花庙村委会","streetCode":"320118004","areaCode":"320118","cityCode":"3201","provinceCode":"32"},{"code":"320118004216","name":"义保村委会","streetCode":"320118004","areaCode":"320118","cityCode":"3201","provinceCode":"32"}]},{
            "streetName": "东坝街道","villages": [{"code":"320118005002","name":"东坝社区居委会","streetCode":"320118005","areaCode":"320118","cityCode":"3201","provinceCode":"32"},{"code":"320118005003","name":"沛桥社区居委会","streetCode":"320118005","areaCode":"320118","cityCode":"3201","provinceCode":"32"},{"code":"320118005004","name":"新中社区居委会","streetCode":"320118005","areaCode":"320118","cityCode":"3201","provinceCode":"32"},{"code":"320118005005","name":"东风社区居委会","streetCode":"320118005","areaCode":"320118","cityCode":"3201","provinceCode":"32"},{"code":"320118005006","name":"傅家坛社区居委会","streetCode":"320118005","areaCode":"320118","cityCode":"3201","provinceCode":"32"},{"code":"320118005007","name":"青山社区居委会","streetCode":"320118005","areaCode":"320118","cityCode":"3201","provinceCode":"32"},{"code":"320118005008","name":"下坝社区居委会","streetCode":"320118005","areaCode":"320118","cityCode":"3201","provinceCode":"32"},{"code":"320118005204","name":"红松村委会","streetCode":"320118005","areaCode":"320118","cityCode":"3201","provinceCode":"32"},{"code":"320118005208","name":"游子山村委会","streetCode":"320118005","areaCode":"320118","cityCode":"3201","provinceCode":"32"},{"code":"320118005212","name":"和睦涧村委会","streetCode":"320118005","areaCode":"320118","cityCode":"3201","provinceCode":"32"},{"code":"320118005216","name":"河南村委会","streetCode":"320118005","areaCode":"320118","cityCode":"3201","provinceCode":"32"},{"code":"320118005217","name":"青枫村委会","streetCode":"320118005","areaCode":"320118","cityCode":"3201","provinceCode":"32"}]},{
            "streetName": "桠溪街道","villages": [{"code":"320118006002","name":"桠溪社区居委会","streetCode":"320118006","areaCode":"320118","cityCode":"3201","provinceCode":"32"},{"code":"320118006003","name":"赵村社区居委会","streetCode":"320118006","areaCode":"320118","cityCode":"3201","provinceCode":"32"},{"code":"320118006004","name":"跃进社区居委会","streetCode":"320118006","areaCode":"320118","cityCode":"3201","provinceCode":"32"},{"code":"320118006005","name":"永庆社区居委会","streetCode":"320118006","areaCode":"320118","cityCode":"3201","provinceCode":"32"},{"code":"320118006006","name":"荆山社区居委会","streetCode":"320118006","areaCode":"320118","cityCode":"3201","provinceCode":"32"},{"code":"320118006007","name":"蓝溪社区居委会","streetCode":"320118006","areaCode":"320118","cityCode":"3201","provinceCode":"32"},{"code":"320118006008","name":"桥李社区居委会","streetCode":"320118006","areaCode":"320118","cityCode":"3201","provinceCode":"32"},{"code":"320118006009","name":"顾陇社区居委会","streetCode":"320118006","areaCode":"320118","cityCode":"3201","provinceCode":"32"},{"code":"320118006010","name":"瑶宕社区居委会","streetCode":"320118006","areaCode":"320118","cityCode":"3201","provinceCode":"32"},{"code":"320118006011","name":"胥河社区居委会","streetCode":"320118006","areaCode":"320118","cityCode":"3201","provinceCode":"32"},{"code":"320118006201","name":"安乐村委会","streetCode":"320118006","areaCode":"320118","cityCode":"3201","provinceCode":"32"},{"code":"320118006202","name":"观圩村委会","streetCode":"320118006","areaCode":"320118","cityCode":"3201","provinceCode":"32"},{"code":"320118006205","name":"观溪村委会","streetCode":"320118006","areaCode":"320118","cityCode":"3201","provinceCode":"32"},{"code":"320118006208","name":"尚义村委会","streetCode":"320118006","areaCode":"320118","cityCode":"3201","provinceCode":"32"},{"code":"320118006215","name":"穆家庄村委会","streetCode":"320118006","areaCode":"320118","cityCode":"3201","provinceCode":"32"},{"code":"320118006216","name":"新塘村委会","streetCode":"320118006","areaCode":"320118","cityCode":"3201","provinceCode":"32"},{"code":"320118006217","name":"兴旺村委会","streetCode":"320118006","areaCode":"320118","cityCode":"3201","provinceCode":"32"},{"code":"320118006219","name":"镇东村委会","streetCode":"320118006","areaCode":"320118","cityCode":"3201","provinceCode":"32"},{"code":"320118006220","name":"花义村委会","streetCode":"320118006","areaCode":"320118","cityCode":"3201","provinceCode":"32"},{"code":"320118006221","name":"韩桥村委会","streetCode":"320118006","areaCode":"320118","cityCode":"3201","provinceCode":"32"},{"code":"320118006222","name":"镇南村委会","streetCode":"320118006","areaCode":"320118","cityCode":"3201","provinceCode":"32"},{"code":"320118006223","name":"新墙村委会","streetCode":"320118006","areaCode":"320118","cityCode":"3201","provinceCode":"32"}]},{
            "streetName": "阳江镇","villages": [{"code":"320118101001","name":"襟湖社区居委会","streetCode":"320118101","areaCode":"320118","cityCode":"3201","provinceCode":"32"},{"code":"320118101002","name":"官城社区居委会","streetCode":"320118101","areaCode":"320118","cityCode":"3201","provinceCode":"32"},{"code":"320118101003","name":"保城社区居委会","streetCode":"320118101","areaCode":"320118","cityCode":"3201","provinceCode":"32"},{"code":"320118101004","name":"永丰社区居委会","streetCode":"320118101","areaCode":"320118","cityCode":"3201","provinceCode":"32"},{"code":"320118101005","name":"沧溪社区居委会","streetCode":"320118101","areaCode":"320118","cityCode":"3201","provinceCode":"32"},{"code":"320118101006","name":"新正社区居委会","streetCode":"320118101","areaCode":"320118","cityCode":"3201","provinceCode":"32"},{"code":"320118101007","name":"永联社区居委会","streetCode":"320118101","areaCode":"320118","cityCode":"3201","provinceCode":"32"},{"code":"320118101008","name":"一字社区居委会","streetCode":"320118101","areaCode":"320118","cityCode":"3201","provinceCode":"32"},{"code":"320118101009","name":"西莲社区居委会","streetCode":"320118101","areaCode":"320118","cityCode":"3201","provinceCode":"32"},{"code":"320118101010","name":"狮树社区居委会","streetCode":"320118101","areaCode":"320118","cityCode":"3201","provinceCode":"32"},{"code":"320118101011","name":"东湖社区居委会","streetCode":"320118101","areaCode":"320118","cityCode":"3201","provinceCode":"32"},{"code":"320118101205","name":"胜利村委会","streetCode":"320118101","areaCode":"320118","cityCode":"3201","provinceCode":"32"},{"code":"320118101207","name":"北固村委会","streetCode":"320118101","areaCode":"320118","cityCode":"3201","provinceCode":"32"},{"code":"320118101208","name":"大月村委会","streetCode":"320118101","areaCode":"320118","cityCode":"3201","provinceCode":"32"},{"code":"320118101209","name":"临湖村委会","streetCode":"320118101","areaCode":"320118","cityCode":"3201","provinceCode":"32"},{"code":"320118101211","name":"高墩村委会","streetCode":"320118101","areaCode":"320118","cityCode":"3201","provinceCode":"32"},{"code":"320118101213","name":"屏埂村委会","streetCode":"320118101","areaCode":"320118","cityCode":"3201","provinceCode":"32"},{"code":"320118101214","name":"太平村委会","streetCode":"320118101","areaCode":"320118","cityCode":"3201","provinceCode":"32"},{"code":"320118101220","name":"丹湖村委会","streetCode":"320118101","areaCode":"320118","cityCode":"3201","provinceCode":"32"},{"code":"320118101223","name":"潦田村委会","streetCode":"320118101","areaCode":"320118","cityCode":"3201","provinceCode":"32"},{"code":"320118101225","name":"龙潭村委会","streetCode":"320118101","areaCode":"320118","cityCode":"3201","provinceCode":"32"},{"code":"320118101226","name":"小花村委会","streetCode":"320118101","areaCode":"320118","cityCode":"3201","provinceCode":"32"},{"code":"320118101230","name":"费家嘴村委会","streetCode":"320118101","areaCode":"320118","cityCode":"3201","provinceCode":"32"},{"code":"320118101235","name":"横溪村委会","streetCode":"320118101","areaCode":"320118","cityCode":"3201","provinceCode":"32"},{"code":"320118101236","name":"南溪村委会","streetCode":"320118101","areaCode":"320118","cityCode":"3201","provinceCode":"32"},{"code":"320118101238","name":"关王村委会","streetCode":"320118101","areaCode":"320118","cityCode":"3201","provinceCode":"32"}]},{
            "streetName": "砖墙镇","villages": [{"code":"320118102001","name":"仙圩社区居委会","streetCode":"320118102","areaCode":"320118","cityCode":"3201","provinceCode":"32"},{"code":"320118102002","name":"茅城社区居委会","streetCode":"320118102","areaCode":"320118","cityCode":"3201","provinceCode":"32"},{"code":"320118102003","name":"永成社区居委会","streetCode":"320118102","areaCode":"320118","cityCode":"3201","provinceCode":"32"},{"code":"320118102004","name":"三和社区居委会","streetCode":"320118102","areaCode":"320118","cityCode":"3201","provinceCode":"32"},{"code":"320118102005","name":"北埂陈社区居委会","streetCode":"320118102","areaCode":"320118","cityCode":"3201","provinceCode":"32"},{"code":"320118102006","name":"港口社区居委会","streetCode":"320118102","areaCode":"320118","cityCode":"3201","provinceCode":"32"},{"code":"320118102007","name":"四园社区居委会","streetCode":"320118102","areaCode":"320118","cityCode":"3201","provinceCode":"32"},{"code":"320118102008","name":"夹沟社区居委会","streetCode":"320118102","areaCode":"320118","cityCode":"3201","provinceCode":"32"},{"code":"320118102009","name":"水碧桥社区居委会","streetCode":"320118102","areaCode":"320118","cityCode":"3201","provinceCode":"32"},{"code":"320118102204","name":"桥湾村委会","streetCode":"320118102","areaCode":"320118","cityCode":"3201","provinceCode":"32"},{"code":"320118102206","name":"凤卞村委会","streetCode":"320118102","areaCode":"320118","cityCode":"3201","provinceCode":"32"},{"code":"320118102207","name":"大涵村委会","streetCode":"320118102","areaCode":"320118","cityCode":"3201","provinceCode":"32"},{"code":"320118102211","name":"木樨村委会","streetCode":"320118102","areaCode":"320118","cityCode":"3201","provinceCode":"32"},{"code":"320118102212","name":"陡门村委会","streetCode":"320118102","areaCode":"320118","cityCode":"3201","provinceCode":"32"}]},{
            "streetName": "高淳县团结圩良种繁育场","villages": [{"code":"320118400498","name":"高淳县团结圩良种繁育场虚拟社区","streetCode":"320118400","areaCode":"320118","cityCode":"3201","provinceCode":"32"}]},{
            "streetName": "高淳县茶叶实验场","villages": [{"code":"320118401498","name":"高淳县茶叶实验场虚拟社区","streetCode":"320118401","areaCode":"320118","cityCode":"3201","provinceCode":"32"}]},{
            "streetName": "高淳监狱","villages": [{"code":"320118402498","name":"高淳监狱虚拟社区","streetCode":"320118402","areaCode":"320118","cityCode":"3201","provinceCode":"32"}]},{
            "streetName": "高淳县傅家坛林场","villages": [{"code":"320118403498","name":"高淳县傅家坛林场虚拟社区","streetCode":"320118403","areaCode":"320118","cityCode":"3201","provinceCode":"32"}]}]

          }
        ]
      }

    ]


